{"type":"FeatureCollection","features":[{"type":"Feature","properties":{"scalerank":5,"featurecla":"mountain","name":"Jebel Toubkal","elevation":4165,"comment":null,"name_alt":null,"lat_y":31.062079169,"long_x":-7.916127082,"nation1":null,"nation2":null,"note":null,"region":"Africa","subregion":null,"min_zoom":6,"label":null,"wikidataid":"Q503433","name_ar":"توبقال","name_bn":"জেবেল তোউবকাল","name_de":"Jbel Toubkal","name_en":"Jbel Toubkal","name_es":"Monte Tubqal","name_fr":"Jbel Toubkal","name_el":"Τζέμπελ Τουμπκάλ","name_hi":"जेबेल टूबकाल","name_hu":"Toubkal","name_id":"Jbel Toubkal","name_it":"Jbel Toubkal","name_ja":"ツブカル山","name_ko":"제벨 투브칼","name_nl":"Toubkal","name_pl":"Tubkal","name_pt":"Jbel Toubkal","name_ru":"Джебель-Тубкаль","name_sv":"Jbel Toubkal","name_tr":"Jebel Toubkal","name_vi":"Núi Toubkal","name_zh":"图卜卡勒峰","ne_id":1159105269,"name_fa":"توبکال","name_he":"הר טובקאל","name_uk":"Тубкаль","name_ur":"جیبیل ٹوبکال","name_zht":"圖卜卡勒峰"},"bbox":[-7.916134,31.062075,-7.916134,31.062075],"geometry":{"type":"Point","coordinates":[-7.916134,31.062075]}},{"type":"Feature","properties":{"scalerank":5,"featurecla":"mountain","name":"Mount Batu","elevation":4307,"comment":null,"name_alt":null,"lat_y":6.666693427,"long_x":39.41675866,"nation1":null,"nation2":null,"note":null,"region":"Africa","subregion":null,"min_zoom":6,"label":"Mt. Batu","wikidataid":"Q247952","name_ar":"جبل باتو","name_bn":"মাউন্ট বাতু","name_de":"Batu","name_en":"Mount Batu","name_es":"Monte Batu","name_fr":"Mont Batu","name_el":"Όρος Μπατού","name_hi":"बटु पर्वत","name_hu":"Mount Batu","name_id":"Gunung Batu","name_it":"Monte Batu","name_ja":"バツ山","name_ko":"마운트 바투","name_nl":"Mount Batu","name_pl":"Mount Batu","name_pt":"Monte Batu","name_ru":"Бату","name_sv":"Batu","name_tr":"Batu Dağı","name_vi":"Núi Batu","name_zh":"巴圖山","ne_id":1159105273,"name_fa":"کوه باتو","name_he":"הר בונגונג","name_uk":"Бату","name_ur":"ماؤنٹ باٹو","name_zht":"巴圖山"},"bbox":[39.416777,6.666693,39.416777,6.666693],"geometry":{"type":"Point","coordinates":[39.416777,6.666693]}},{"type":"Feature","properties":{"scalerank":5,"featurecla":"mountain","name":"Ras Dejen","elevation":4533,"comment":null,"name_alt":null,"lat_y":13.236761786,"long_x":38.372325066,"nation1":null,"nation2":null,"note":null,"region":"Africa","subregion":null,"min_zoom":6,"label":null,"wikidataid":"Q275435","name_ar":"رأس دجن","name_bn":"রাস দেজেন","name_de":"Ras Daschän","name_en":"Ras Dashen","name_es":"Monte Ras Dejen","name_fr":"Ras Dashan","name_el":"Ρας Ντασέν","name_hi":"रास देजेन","name_hu":"Ras Dashan","name_id":"Ras Dashen","name_it":"Ras Dascian","name_ja":"ラス・ダシャン山","name_ko":"라스 데헨","name_nl":"Ras Dashan","name_pl":"Ras Daszan","name_pt":"Ras Dashan","name_ru":"Рас-Дашэн","name_sv":"Ras Dashen","name_tr":"Ras Dejen","name_vi":"Ras Dashen","name_zh":"拉斯·达善峰","ne_id":1159105283,"name_fa":"راس داشن","name_he":"ראס דשן","name_uk":"Рас-Дашен","name_ur":"راس ڈیجین","name_zht":"拉斯·達善峰"},"bbox":[38.372331,13.236747,38.372331,13.236747],"geometry":{"type":"Point","coordinates":[38.372331,13.236747]}},{"type":"Feature","properties":{"scalerank":5,"featurecla":"mountain","name":"Mount Elgon","elevation":4321,"comment":null,"name_alt":null,"lat_y":1.123114325,"long_x":34.5341903,"nation1":null,"nation2":null,"note":null,"region":"Africa","subregion":null,"min_zoom":6,"label":"Mt. Elgon","wikidataid":"Q732838","name_ar":"جبل إلغون","name_bn":"মাউন্ট এলগন","name_de":"Mount Elgon","name_en":"Mount Elgon","name_es":"Monte Elgon","name_fr":"mont Elgon","name_el":"Όρος Έλγον","name_hi":"एल्गोन पर्वत","name_hu":"Elgon-hegy","name_id":"Gunung Elgon","name_it":"Monte Elgon","name_ja":"エルゴン山","name_ko":"엘곤산","name_nl":"Mount Elgon","name_pl":"Mount Elgon","name_pt":"Monte Elgon","name_ru":"Элгон","name_sv":"Mount Elgon","name_tr":"Elgon Dağı","name_vi":"Núi Elgon","name_zh":"埃尔贡山","ne_id":1159105285,"name_fa":"کوه الگان","name_he":"הר אלגון","name_uk":"Елгон","name_ur":"ماؤنٹ ایلگون","name_zht":"埃爾貢山"},"bbox":[34.534162,1.123151,34.534162,1.123151],"geometry":{"type":"Point","coordinates":[34.534162,1.123151]}},{"type":"Feature","properties":{"scalerank":5,"featurecla":"mountain","name":"Talo","elevation":4413,"comment":null,"name_alt":null,"lat_y":10.656683661,"long_x":37.882212761,"nation1":null,"nation2":null,"note":null,"region":"Africa","subregion":null,"min_zoom":6,"label":null,"wikidataid":null,"name_ar":"تالو","name_bn":"তালো","name_de":"Talo","name_en":"Talo","name_es":"Talo","name_fr":"Talo","name_el":"Τάλω","name_hi":"तालो","name_hu":"Talo","name_id":"Talo","name_it":"Talo","name_ja":"タロ山","name_ko":"탈로","name_nl":"Talo","name_pl":"Talo","name_pt":"Talo","name_ru":"гора Тало","name_sv":"Talo","name_tr":"Talo","name_vi":"Núi Talo","name_zh":"塔洛山","ne_id":1159105291,"name_fa":"تالو","name_he":"טאלו","name_uk":"Тало","name_ur":"تالو","name_zht":"塔洛山"},"bbox":[37.88222,10.656695,37.88222,10.656695],"geometry":{"type":"Point","coordinates":[37.88222,10.656695]}},{"type":"Feature","properties":{"scalerank":5,"featurecla":"mountain","name":"Lesatima","elevation":4001,"comment":null,"name_alt":null,"lat_y":-0.324761652,"long_x":36.623667839,"nation1":null,"nation2":null,"note":null,"region":"Africa","subregion":null,"min_zoom":6,"label":"Lesatima","wikidataid":"Q6923490","name_ar":"ساتيما","name_bn":"লেসাতিমা","name_de":"Oldoinyo Lesatima","name_en":"Mount Satima","name_es":"Lesatima","name_fr":"Mount Satima","name_el":"Όρος Σατίμα","name_hi":"लेसैटिमा","name_hu":"Lesatima","name_id":"Lesatima","name_it":"Lesatima","name_ja":"レサティマ","name_ko":"레사티마","name_nl":"Mount Satima","name_pl":"Lesatima","name_pt":"Monte Satima","name_ru":"гора Лесатима","name_sv":"Lesatima","name_tr":"Lesatima","name_vi":"Núi Lesatima","name_zh":"萊薩蒂馬山","ne_id":1159105295,"name_fa":"کوه ساتیما","name_he":"לסטימה","name_uk":"Лесатіма","name_ur":"لیسٹیما","name_zht":"萊薩蒂馬山"},"bbox":[36.623618,-0.324806,36.623618,-0.324806],"geometry":{"type":"Point","coordinates":[36.623618,-0.324806]}},{"type":"Feature","properties":{"scalerank":4,"featurecla":"mountain","name":"Mount Kenya","elevation":5199,"comment":null,"name_alt":null,"lat_y":-0.150079034,"long_x":37.299937371,"nation1":null,"nation2":null,"note":null,"region":"Africa","subregion":null,"min_zoom":6,"label":null,"wikidataid":"Q172070","name_ar":"جبل كينيا","name_bn":"কেনিয়া পর্বত","name_de":"Mount-Kenya-Massiv","name_en":"Mount Kenya","name_es":"Monte Kenia","name_fr":"mont Kenya","name_el":"Όρος Κένυα","name_hi":"माउंट केन्या","name_hu":"Kenya-hegy","name_id":"Gunung Kenya","name_it":"Monte Kenya","name_ja":"ケニア山","name_ko":"케냐산","name_nl":"Mount Kenya","name_pl":"Kenia","name_pt":"Monte Quénia","name_ru":"Кения","name_sv":"Mount Kenya","name_tr":"Kenya Dağı","name_vi":"Núi Kenya","name_zh":"肯尼亚山","ne_id":1159105297,"name_fa":"کوه کنیا","name_he":"הר קניה","name_uk":"Кенія","name_ur":"کوہ کینیا","name_zht":"肯尼亞山"},"bbox":[37.299935,-0.150072,37.299935,-0.150072],"geometry":{"type":"Point","coordinates":[37.299935,-0.150072]}},{"type":"Feature","properties":{"scalerank":4,"featurecla":"mountain","name":"Mount Stanley","elevation":4979,"comment":null,"name_alt":null,"lat_y":0.380072333,"long_x":29.872080925,"nation1":null,"nation2":null,"note":null,"region":"Africa","subregion":null,"min_zoom":6,"label":"Mt. Stanley","wikidataid":"Q221666","name_ar":"جبل ستانلي","name_bn":"মাউন্ট স্ট্যানলি","name_de":"Mount Stanley","name_en":"Mount Stanley","name_es":"Monte Stanley","name_fr":"mont Stanley","name_el":"Όρος Στάνλεϊ","name_hi":"स्टेनली पर्वत","name_hu":"Stanley-hegy","name_id":"Gunung Stanley","name_it":"Monte Stanley","name_ja":"スタンリー山","name_ko":"스탠리산","name_nl":"Mount Stanley","name_pl":"Góra Stanleya","name_pt":"Monte Stanley","name_ru":"Стэнли","name_sv":"Mont Ngaliema","name_tr":"Stanley Dağı","name_vi":"Núi Standley","name_zh":"斯坦利山","ne_id":1159105299,"name_fa":"کوه استنلی","name_he":"הר סטנלי","name_uk":"Стенлі","name_ur":"ماؤنٹ اسٹینلے","name_zht":"斯坦利山"},"bbox":[29.872085,0.380108,29.872085,0.380108],"geometry":{"type":"Point","coordinates":[29.872085,0.380108]}},{"type":"Feature","properties":{"scalerank":2,"featurecla":"mountain","name":"Mount Kilimanjaro","elevation":5895,"comment":"Highest point in Africa","name_alt":null,"lat_y":-3.075738214,"long_x":37.353282097,"nation1":null,"nation2":null,"note":null,"region":"Africa","subregion":null,"min_zoom":5,"label":null,"wikidataid":"Q7296","name_ar":"جبل كليمنجارو","name_bn":"কিলিমাঞ্জারো","name_de":"Kilimandscharo","name_en":"Mount Kilimanjaro","name_es":"Kilimanjaro","name_fr":"Kilimanjaro","name_el":"Κιλιμάντζαρο","name_hi":"किलिमंजारो","name_hu":"Kilimandzsáró","name_id":"Kilimanjaro","name_it":"Kilimangiaro","name_ja":"キリマンジャロ","name_ko":"킬리만자로산","name_nl":"Kilimanjaro","name_pl":"Kilimandżaro","name_pt":"Kilimanjaro","name_ru":"Килиманджаро","name_sv":"Kilimanjaro","name_tr":"Kilimanjaro Dağı","name_vi":"Núi Kilimanjaro","name_zh":"乞力马扎罗山","ne_id":1159105301,"name_fa":"کلیمانجارو","name_he":"קילימנג'רו","name_uk":"Кіліманджаро","name_ur":"کلیمنجارو","name_zht":"乞力马扎罗山"},"bbox":[37.353252,-3.075715,37.353252,-3.075715],"geometry":{"type":"Point","coordinates":[37.353252,-3.075715]}},{"type":"Feature","properties":{"scalerank":9,"featurecla":"mountain","name":"Volcan Karisimbi","elevation":4519,"comment":null,"name_alt":null,"lat_y":-1.50005462,"long_x":29.449961785,"nation1":"RW","nation2":"CD","note":"From PeakBagger.com, with kind permission.","region":"Africa","subregion":null,"min_zoom":7.2,"label":"Volcan Karisimbi","wikidataid":"Q737859","name_ar":"جبل كاريسيمبي","name_bn":"ভলকান কারিসিম্বি","name_de":"Karisimbi","name_en":"Mount Karisimbi","name_es":"Monte Karisimbi","name_fr":"mont Karisimbi","name_el":"Βολκάν Καρίσιμπι","name_hi":"वोल्कैन करिसिम्बी","name_hu":"Karisimbi","name_id":"Gunung Karisimbi","name_it":"Karisimbi","name_ja":"カリシンビ山","name_ko":"카리심비 산","name_nl":"Mount Karisimbi","name_pl":"Karisimbi","name_pt":"Monte Karisimbi","name_ru":"Карисимби","name_sv":"Karisimbi","name_tr":"Karisimbi Dağı","name_vi":"Núi lửa Karisimbi","name_zh":"卡里辛比火山","ne_id":1159105307,"name_fa":"کاریزیمبی","name_he":"הר קאריסימבי","name_uk":"Карісімбі","name_ur":"ولکن کاریسیمبی","name_zht":"卡里辛比火山"},"bbox":[29.449912,-1.500039,29.449912,-1.500039],"geometry":{"type":"Point","coordinates":[29.449912,-1.500039]}},{"type":"Feature","properties":{"scalerank":9,"featurecla":"mountain","name":"Mont Cameroun","elevation":4040,"comment":null,"name_alt":null,"lat_y":4.219977118,"long_x":9.169932488,"nation1":"CM","nation2":null,"note":"From PeakBagger.com, with kind permission.","region":"Africa","subregion":null,"min_zoom":7.2,"label":null,"wikidataid":"Q190562","name_ar":"جبل كميرون","name_bn":"মঁ ক্যামেরৌন","name_de":"Kamerunberg","name_en":"Mount Cameroon","name_es":"Monte Camerún","name_fr":"mont Cameroun","name_el":"Όρος Καμερούν","name_hi":"माउण्ट कैमरून","name_hu":"Kamerun-hegy","name_id":"Gunung Kamerun","name_it":"Monte Camerun","name_ja":"カメルーン山","name_ko":"카메룬산","name_nl":"Mount Cameroon","name_pl":"Kamerun","name_pt":"Monte Camarões","name_ru":"Камерун","name_sv":"Kamerun","name_tr":"Mont Cameroun","name_vi":"Cameroun","name_zh":"喀麦隆火山","ne_id":1159105349,"name_fa":"کامرون","name_he":"מון פלורי","name_uk":"Камерун","name_ur":"مونٹ کیمرون","name_zht":"喀麥隆火山"},"bbox":[9.169948,4.219974,9.169948,4.219974],"geometry":{"type":"Point","coordinates":[9.169948,4.219974]}},{"type":"Feature","properties":{"scalerank":9,"featurecla":"mountain","name":"Amba Farit","elevation":4270,"comment":null,"name_alt":null,"lat_y":10.950079657,"long_x":39.099986199,"nation1":"ET","nation2":null,"note":"From PeakBagger.com, with kind permission.","region":"Africa","subregion":null,"min_zoom":7.2,"label":"Amba Farit","wikidataid":"Q24026551","name_ar":"أمبا فاريت","name_bn":"আম্বা ফারিত","name_de":"Amba Farit","name_en":"Amba Farit","name_es":"Amba Farit","name_fr":"Amba Farit","name_el":"Άμπα Φαρίτ","name_hi":"अंबा फरिट","name_hu":"Amba Farit","name_id":"Amba Farit","name_it":"Amba Farit","name_ja":"アンバファリト山","name_ko":"암바 파리트","name_nl":"Amba Moka","name_pl":"Amba Farit","name_pt":"Amba Farit","name_ru":"Амба-Фарит","name_sv":"Amba Moka","name_tr":"Amba Farit","name_vi":"Núi Amba Farit","name_zh":"安巴弗里特山","ne_id":1159105385,"name_fa":"آمبا فاریت","name_he":"אמבה פאריט","name_uk":"Амба Фарит","name_ur":"ایمبا فاریت","name_zht":"安巴法里特山"},"bbox":[39.099945,10.950099,39.099945,10.950099],"geometry":{"type":"Point","coordinates":[39.099945,10.950099]}},{"type":"Feature","properties":{"scalerank":6,"featurecla":"mountain","name":"Mount Minto","elevation":4166,"comment":null,"name_alt":null,"lat_y":-71.769707941,"long_x":168.757334832,"nation1":null,"nation2":null,"note":null,"region":"Antarctica","subregion":null,"min_zoom":6.7,"label":"Mt. Minto","wikidataid":"Q1950606","name_ar":"جبل مينتو","name_bn":"মাউন্ট মিন্টো","name_de":"Mount Minto","name_en":"Mount Minto","name_es":"Monte Minto","name_fr":"mont Minto","name_el":"Όρος Μίντο","name_hi":"मिंटो पर्वत","name_hu":"Mount Minto","name_id":"Gunung Minto","name_it":"Monte Minto","name_ja":"ミント山","name_ko":"마운트 민토","name_nl":"Mount Minto","name_pl":"Mount Minto","name_pt":"Monte Minto","name_ru":"гора Минто","name_sv":"Minto","name_tr":"Minto Dağı","name_vi":"Núi Minto","name_zh":"明托山","ne_id":1159105399,"name_fa":"کوه مینتو","name_he":"הר מיזֶרי","name_uk":"Мінто","name_ur":"ماؤنٹ منٹو","name_zht":"明託山"},"bbox":[168.757393,-71.769751,168.757393,-71.769751],"geometry":{"type":"Point","coordinates":[168.757393,-71.769751]}},{"type":"Feature","properties":{"scalerank":6,"featurecla":"mountain","name":"Mount Kirkpatrick","elevation":4528,"comment":null,"name_alt":null,"lat_y":-84.33965423,"long_x":166.450327996,"nation1":null,"nation2":null,"note":null,"region":"Antarctica","subregion":null,"min_zoom":6.7,"label":null,"wikidataid":"Q1929197","name_ar":"جبل كيركباتريك","name_bn":"মাউন্ট কার্কপ্যাট্রিক","name_de":"Mount Kirkpatrick","name_en":"Mount Kirkpatrick","name_es":"Kirkpatrick","name_fr":"mont Kirkpatrick","name_el":"Όρος Κερκπάτρικ","name_hi":"किर्कपैट्रिक पर्वत","name_hu":"Mount Kirkpatrick","name_id":"Gunung Kirkpatrick","name_it":"Monte Kirkpatrick","name_ja":"カークパトリック山","name_ko":"마운트 커크패트릭","name_nl":"Mount Kirkpatrick","name_pl":"Góra Kirkpatricka","name_pt":"Monte Kirkpatrick","name_ru":"Керкпатрик","name_sv":"Mount Kirkpatrick","name_tr":"Kirkpatrick Dağı","name_vi":"Núi Kirkpatrick","name_zh":"柯克帕特里克山","ne_id":1159105403,"name_fa":"کوه کرکپاتریک","name_he":"הר קירקפטריק","name_uk":"Кіркпатрік","name_ur":"ماؤنٹ کیرکپیٹرک","name_zht":"柯克帕特里克山"},"bbox":[166.450388,-84.33961,166.450388,-84.33961],"geometry":{"type":"Point","coordinates":[166.450388,-84.33961]}},{"type":"Feature","properties":{"scalerank":2,"featurecla":"mountain","name":"Vinson Massif","elevation":4892,"comment":null,"name_alt":null,"lat_y":-78.529351495,"long_x":-85.633717414,"nation1":null,"nation2":null,"note":null,"region":"Antarctica","subregion":null,"min_zoom":5,"label":null,"wikidataid":"Q163758","name_ar":"فينسون ماسيف","name_bn":"ভিনসন স্তূপপর্বত","name_de":"Vinson-Massiv","name_en":"Vinson Massif","name_es":"Macizo Vinson","name_fr":"Massif Vinson","name_el":"Όρος Βίνσεν","name_hi":"विन्सन मैसिफ़","name_hu":"Vinson Massif","name_id":"Vinson Massif","name_it":"Massiccio Vinson","name_ja":"ヴィンソン・マシフ","name_ko":"빈슨 산괴","name_nl":"Vinsonmassief","name_pl":"Masyw Vinsona","name_pt":"Maciço Vinson","name_ru":"Массив Винсон","name_sv":"Vinson Massif","name_tr":"Vinson Dağı","name_vi":"Vinson Massif","name_zh":"文森山","ne_id":1159105413,"name_fa":"توده وینسون","name_he":"וינסון מסיב","name_uk":"Масив Вінсон","name_ur":"وینسن ماسیف","name_zht":"文森山"},"bbox":[-85.633729,-78.529362,-85.633729,-78.529362],"geometry":{"type":"Point","coordinates":[-85.633729,-78.529362]}},{"type":"Feature","properties":{"scalerank":3,"featurecla":"mountain","name":"Mount Sidley","elevation":4285,"comment":null,"name_alt":null,"lat_y":-77.031548761,"long_x":-126.066517707,"nation1":null,"nation2":null,"note":null,"region":"Antarctica","subregion":null,"min_zoom":5.1,"label":"Mt. Sidley","wikidataid":"Q924312","name_ar":"جبل سيدلي","name_bn":"মাউন্ট সিদলি","name_de":"Mount Sidley","name_en":"Mount Sidley","name_es":"Monte Sidley","name_fr":"mont Sidley","name_el":"Όρος Σίντλεϊ","name_hi":"सिडली पर्वत","name_hu":"Mount Sidley","name_id":"Gunung Sidley","name_it":"Monte Sidley","name_ja":"シドリー山","name_ko":"마운트 시들리","name_nl":"Mount Sidley","name_pl":"Mount Sidley","name_pt":"Monte Sidley","name_ru":"Сидли","name_sv":"Sidley","name_tr":"Sidley Dağı","name_vi":"Núi Sidley","name_zh":"西德利火山","ne_id":1159105417,"name_fa":"کوه سیدلی","name_he":"הר סר סנדפורד","name_uk":"Сідлей","name_ur":"ماؤنٹ سڈلے","name_zht":"西德利火山"},"bbox":[-126.066506,-77.031562,-126.066506,-77.031562],"geometry":{"type":"Point","coordinates":[-126.066506,-77.031562]}},{"type":"Feature","properties":{"scalerank":3,"featurecla":"mountain","name":"Mount Fridtjof Nansen","elevation":4069,"comment":null,"name_alt":null,"lat_y":-85.3475888,"long_x":-167.554676887,"nation1":null,"nation2":null,"note":null,"region":"Antarctica","subregion":null,"min_zoom":5.1,"label":"Mt. Fridtjof Nansen","wikidataid":"Q3321842","name_ar":"جبل فريدجوف نانسن","name_bn":"মাউন্ট ফ্রিদতজফ নানসেন","name_de":"Mount Fridtjof Nansen","name_en":"Mount Fridtjof Nansen","name_es":"Monte Fridtjof Nansen","name_fr":"mont Fridtjof Nansen","name_el":"Όρος Φριντγιοφ Νάνσεν","name_hi":"फ्रिडजॉफ नानसेन पर्वत","name_hu":"Mount Fridtjof Nansen","name_id":"Gunung Fridtjof Nansen","name_it":"Monte Fridtjof Nansen","name_ja":"フリチョフナンセン山","name_ko":"마운틴 프리드조프 난센","name_nl":"Mount Fridtjof Nansen","name_pl":"Mount Fridtjof Nansen","name_pt":"Monte Fridtjof Nansen","name_ru":"гора Нансена","name_sv":"Fridtjof Nansen","name_tr":"Fridtjof Nansen Dağı","name_vi":"Núi Fridtjof Nansen","name_zh":"弗里喬夫南森山","ne_id":1159105421,"name_fa":"کوه فریدتجوف ناسن","name_he":"הר הלקון","name_uk":"гора Фрідтьоф Нансен","name_ur":"ماؤنٹ فرڈٹوف نانسین","name_zht":"弗里喬夫南森山"},"bbox":[-167.554675,-85.347622,-167.554675,-85.347622],"geometry":{"type":"Point","coordinates":[-167.554675,-85.347622]}},{"type":"Feature","properties":{"scalerank":9,"featurecla":"mountain","name":"Mount Lister","elevation":4023,"comment":null,"name_alt":null,"lat_y":-78.059991144,"long_x":162.689829949,"nation1":"AQ","nation2":null,"note":"From PeakBagger.com, with kind permission.","region":"Antarctica","subregion":null,"min_zoom":7.2,"label":null,"wikidataid":"Q3861688","name_ar":"جبل ليستر","name_bn":"মাউন্ট লিস্টার","name_de":"Mount Lister","name_en":"Mount Lister","name_es":"Monte Lister","name_fr":"Mont Lister","name_el":"Όρος Λίστερ","name_hi":"लिस्टर पर्वत","name_hu":"Mount Lister","name_id":"Gunung Lister","name_it":"Monte Lister","name_ja":"リスター山","name_ko":"마운트 리스터","name_nl":"Mount Lister","name_pl":"Mount Lister","name_pt":"Monte Lister","name_ru":"гора Листер","name_sv":"Lister","name_tr":"Lister Dağı","name_vi":"Núi Lister","name_zh":"李斯德山","ne_id":1159105425,"name_fa":"کوه لیستر","name_he":"הר ליסטר","name_uk":"Лістер","name_ur":"ماؤنٹ لسٹر","name_zht":"李斯德山"},"bbox":[162.68977,-78.060012,162.68977,-78.060012],"geometry":{"type":"Point","coordinates":[162.68977,-78.060012]}},{"type":"Feature","properties":{"scalerank":9,"featurecla":"mountain","name":"Mount Kaplan","elevation":4230,"comment":null,"name_alt":null,"lat_y":-84.559991144,"long_x":175.359995964,"nation1":"AQ","nation2":null,"note":"From PeakBagger.com, with kind permission.","region":"Antarctica","subregion":null,"min_zoom":7.2,"label":null,"wikidataid":"Q3321901","name_ar":"جبل كابلان","name_bn":"মাউন্ট কাপলান","name_de":"Mount Kaplan","name_en":"Mount Kaplan","name_es":"Monte Kaplan","name_fr":"mont Kaplan","name_el":"Όρος Καπλάν","name_hi":"कपलान पर्वत","name_hu":"Mount Kaplan","name_id":"Gunung Kaplan","name_it":"Monte Kaplan","name_ja":"カプラン山","name_ko":"마운트 카플란","name_nl":"Mount Kaplan","name_pl":"Mount Kaplan","name_pt":"Monte Kaplan","name_ru":"гора Каплан","name_sv":"Kaplan","name_tr":"Kaplan Dağı","name_vi":"Núi Kaplan","name_zh":"卡普蘭山","ne_id":1159105427,"name_fa":"کوه کاپلان","name_he":"הר קפלן","name_uk":"Каплан","name_ur":"ماؤنٹ کپلان","name_zht":"卡普蘭山"},"bbox":[175.359962,-84.559987,175.359962,-84.559987],"geometry":{"type":"Point","coordinates":[175.359962,-84.559987]}},{"type":"Feature","properties":{"scalerank":7,"featurecla":"mountain","name":"Kangju Kangri","elevation":6725,"comment":null,"name_alt":null,"lat_y":33.751410223,"long_x":78.489390496,"nation1":null,"nation2":null,"note":null,"region":"Asia","subregion":null,"min_zoom":7,"label":null,"wikidataid":"Q19459387","name_ar":"كانجو كانغري","name_bn":"ক্যাংগজু কাংগরি","name_de":"Kangju Kangri","name_en":"Kangju Kangri","name_es":"Kangju Kangri","name_fr":"Kangju Kangri","name_el":"Κανγκιού Κανγκρί","name_hi":"कंगजू कांगरी","name_hu":"Kangju Kangri","name_id":"Kangju Kangri","name_it":"Kangju Kangri","name_ja":"カンジュ・カンリ山","name_ko":"강주강리","name_nl":"Kangju Kangri","name_pl":"Kangju Kangri","name_pt":"Kangju Kangri","name_ru":"гора Канджу-Кангри","name_sv":"Kangju Kangri","name_tr":"Kangju Kangri","name_vi":"Núi Kangju Kangri","name_zh":"康居康日山","ne_id":1159105453,"name_fa":"کنگجو کنگری","name_he":"קאנג'ו קאנגרי","name_uk":"Кангевай-Кангрі","name_ur":"کانگجو کینگری","name_zht":"康居康日山"},"bbox":[78.489407,33.751427,78.489407,33.751427],"geometry":{"type":"Point","coordinates":[78.489407,33.751427]}},{"type":"Feature","properties":{"scalerank":7,"featurecla":"mountain","name":"Nun","elevation":7135,"comment":null,"name_alt":null,"lat_y":33.984381415,"long_x":76.024424675,"nation1":null,"nation2":null,"note":null,"region":"Asia","subregion":null,"min_zoom":7,"label":null,"wikidataid":"Q1537198","name_ar":"نان","name_bn":"নান","name_de":"Nun","name_en":"Mount Nun","name_es":"Nun","name_fr":"Nun-Kun","name_el":"Ναν","name_hi":"नुन","name_hu":"Nun","name_id":"Nun","name_it":"Nun","name_ja":"ヌン山","name_ko":"넌","name_nl":"Nun","name_pl":"Nun","name_pt":"Nun Kun","name_ru":"гора Нункун","name_sv":"Nunkun","name_tr":"Nun","name_vi":"Núi Nun","name_zh":"怒山","ne_id":1159105457,"name_fa":"نان","name_he":"נאן","name_uk":"Нун","name_ur":"نن","name_zht":"奴恩山"},"bbox":[76.024471,33.984365,76.024471,33.984365],"geometry":{"type":"Point","coordinates":[76.024471,33.984365]}},{"type":"Feature","properties":{"scalerank":7,"featurecla":"mountain","name":"Laotzyunshan","elevation":4500,"comment":null,"name_alt":null,"lat_y":26.87329743,"long_x":99.617198113,"nation1":null,"nation2":null,"note":null,"region":"Asia","subregion":null,"min_zoom":7,"label":null,"wikidataid":null,"name_ar":"لاوتزيونشان","name_bn":"লাওতজ্যুনশান","name_de":"Laotzyunshan","name_en":"Laotzyunshan","name_es":"Laotzyunshan","name_fr":"Laotzyunshan","name_el":"Λαοτζιουσνάν","name_hi":"लाओत्ज़्युनशान","name_hu":"Laotzyunshan","name_id":"Laotzyunshan","name_it":"Laotzyunshan","name_ja":"ラオツユン山","name_ko":"라오쥰산","name_nl":"Laotzyunshan","name_pl":"Laotzyunshan","name_pt":"Laotzyunshan","name_ru":"Лицзян-Шань","name_sv":"Laotzyunshan","name_tr":"Laotzyunshan","name_vi":"Núi Lão Quân","name_zh":"老君山","ne_id":1159105463,"name_fa":"لائوتزیونشان","name_he":"לאוציונשאן","name_uk":"Лаоджиншань","name_ur":"لاؤٹزیونشان","name_zht":"老君山"},"bbox":[99.617191,26.873307,99.617191,26.873307],"geometry":{"type":"Point","coordinates":[99.617191,26.873307]}},{"type":"Feature","properties":{"scalerank":7,"featurecla":"mountain","name":"Munkh Khairkhan","elevation":4231,"comment":null,"name_alt":null,"lat_y":46.890082098,"long_x":91.465220574,"nation1":null,"nation2":null,"note":null,"region":"Asia","subregion":null,"min_zoom":7,"label":"Munkh Khairkhan","wikidataid":"Q6950349","name_ar":"جبل مونخخايرخان","name_bn":"মুঙ্খ খাইরখান","name_de":"Mönchchairchan Uul","name_en":"Mönkh Khairkhan","name_es":"Munkhkhairkhan","name_fr":"Mönkh Khairkhan Uul","name_el":"Μουνκ Χαϊρχάν","name_hi":"मंख खैरखान","name_hu":"Munkh Khairkhan","name_id":"Munkh Khairkhan","name_it":"Munkh Khairkhan","name_ja":"メイカハイカーン山","name_ko":"뭉크 카이르칸","name_nl":"Mönkh KHairkhan","name_pl":"Mönchchajrchan uul","name_pt":"Mönkhkhairkhan","name_ru":"Мунх-Хайрхан","name_sv":"Munkh Khairkhan","name_tr":"Munkh Khairkhan","name_vi":"Núi Munkh Khairkhan","name_zh":"蒙克凯尔汗山","ne_id":1159105469,"name_fa":"کوه مونخ خیرخان","name_he":"מונטינלופה","name_uk":"Манх Хейрхан","name_ur":"منکھ خیرخان","name_zht":"海汗山"},"bbox":[91.465202,46.89008,91.465202,46.89008],"geometry":{"type":"Point","coordinates":[91.465202,46.89008]}},{"type":"Feature","properties":{"scalerank":7,"featurecla":"mountain","name":"Kangze'gyai","elevation":5808,"comment":null,"name_alt":null,"lat_y":38.515204169,"long_x":97.715830925,"nation1":null,"nation2":null,"note":null,"region":"Asia","subregion":null,"min_zoom":7,"label":null,"wikidataid":null,"name_ar":"كانزيجياي","name_bn":"কাংগজেগ্যাই","name_de":"Kangze'gyai","name_en":"Kangze'gyai","name_es":"Kangze'gyai","name_fr":"Kangze'gyai","name_el":"Κανγκζε'γκουάι","name_hi":"कांग्ज़ेग्याई","name_hu":"Kangze'gyai","name_id":"Kangze'gyai","name_it":"Kangze'gyai","name_ja":"崗則吾結峰","name_ko":"캉제갸이","name_nl":"Kangze'gyai","name_pl":"Kangze'gyai","name_pt":"Kangze'gyai","name_ru":"гора Ганцзэуцзе","name_sv":"Kangze'gyai","name_tr":"Kangze'gyai","name_vi":"Núi Kangze'gyai","name_zh":"康泽盖山","ne_id":1159105475,"name_fa":"کانگزی گیای","name_he":"קאנגזגיאיי","name_uk":"Канджегвай","name_ur":"کانگزیگائی","name_zht":"崗則吾結山"},"bbox":[97.715879,38.51521,97.715879,38.51521],"geometry":{"type":"Point","coordinates":[97.715879,38.51521]}},{"type":"Feature","properties":{"scalerank":7,"featurecla":"mountain","name":"Pik Talghar","elevation":4979,"comment":null,"name_alt":null,"lat_y":43.105475165,"long_x":77.331187371,"nation1":null,"nation2":null,"note":null,"region":"Asia","subregion":null,"min_zoom":7,"label":null,"wikidataid":"Q608494","name_ar":"بيك تلغر","name_bn":"পিক তালঘর","name_de":"Pik Talgar","name_en":"Pik Talgar","name_es":"Pico Talgar","name_fr":"Pik Talgar","name_el":"Πικ Τάλγκαρ","name_hi":"पिक तलघर","name_hu":"Pik Talghar","name_id":"Gunung Talghar","name_it":"Pik Talgar","name_ja":"タルガ���山","name_ko":"픽 탈가르","name_nl":"Pik Talgar","name_pl":"Talghar","name_pt":"Pik Talgar","name_ru":"Талгар","name_sv":"Pik Talgar","name_tr":"Pik Talghar","name_vi":"Núi Talghar","name_zh":"塔爾加爾峰","ne_id":1159105521,"name_fa":"پیک تلگار","name_he":"פסגת טלגר","name_uk":"Талгар","name_ur":"پک ٹالغار","name_zht":"塔爾加爾峰"},"bbox":[77.331219,43.10547,77.331219,43.10547],"geometry":{"type":"Point","coordinates":[77.331219,43.10547]}},{"type":"Feature","properties":{"scalerank":7,"featurecla":"mountain","name":"Batura Mustagh I","elevation":7795,"comment":null,"name_alt":null,"lat_y":36.538275458,"long_x":74.560435418,"nation1":null,"nation2":null,"note":null,"region":"Asia","subregion":null,"min_zoom":7,"label":null,"wikidataid":"Q811064","name_ar":"جبل بتوراسر","name_bn":"বাতুরা মুস্তাগ আই","name_de":"Batura Sar","name_en":"Batura Sar","name_es":"Batura Sar","name_fr":"Batura Sar","name_el":"Νήσοι Μπατούρα Μούσταγκ","name_hi":"बतुरा सर","name_hu":"Batura Mustagh I","name_id":"Batura Muztagh","name_it":"Batura Mustagh I","name_ja":"バトゥーラ・サール","name_ko":"바투라 무스타그 I","name_nl":"Batura Sar","name_pl":"Batura Sar","name_pt":"Batura Sar","name_ru":"Батура-Музтаг","name_sv":"Batura Mustagh","name_tr":"Batura Mustagh I","name_vi":"Dãy Batura Mustagh","name_zh":"巴托拉峰","ne_id":1159105523,"name_fa":"بتورا سر","name_he":"באטורה מוסטאג","name_uk":"Батура Сар","name_ur":"باتورا سر","name_zht":"巴托拉峰"},"bbox":[74.560438,36.538284,74.560438,36.538284],"geometry":{"type":"Point","coordinates":[74.560438,36.538284]}},{"type":"Feature","properties":{"scalerank":7,"featurecla":"mountain","name":"Ak Tag","elevation":6748,"comment":null,"name_alt":null,"lat_y":36.733587958,"long_x":84.602427605,"nation1":null,"nation2":null,"note":null,"region":"Asia","subregion":null,"min_zoom":7,"label":"Ak Tag","wikidataid":"Q28794266","name_ar":"أك تاغ","name_bn":"আক তাগ","name_de":"Ak Tag","name_en":"Aktag","name_es":"Ak Tag","name_fr":"Ak Tag","name_el":"Ακ Ταγκ","name_hi":"ऐक टैग","name_hu":"Ak Tag","name_id":"Ak Tag","name_it":"Ak Tag","name_ja":"アクタグ山","name_ko":"아크 태그","name_nl":"Aktag","name_pl":"Akdag","name_pt":"Ak Tag","name_ru":"Ак-Таг","name_sv":"Aktag","name_tr":"Ak Tag","name_vi":"Núi Ak Tag","name_zh":"阿克塔山","ne_id":1159105529,"name_fa":"آک تگ","name_he":"אק טאג","name_uk":"Ак Таг","name_ur":"ایک ٹیگ","name_zht":"白山"},"bbox":[84.60243,36.733578,84.60243,36.733578],"geometry":{"type":"Point","coordinates":[84.60243,36.733578]}},{"type":"Feature","properties":{"scalerank":7,"featurecla":"mountain","name":"Liushi Shan","elevation":7167,"comment":null,"name_alt":null,"lat_y":35.32251618,"long_x":80.926280144,"nation1":null,"nation2":null,"note":null,"region":"Asia","subregion":null,"min_zoom":7,"label":null,"wikidataid":"Q6654097","name_ar":"جبل لوشي","name_bn":"লিউশি শান","name_de":"Liushi Shan","name_en":"Liushi Shan","name_es":"Liushi Shan","name_fr":"Liushi Shan","name_el":"Λιούσι Σαν","name_hi":"कुनलुन देवी","name_hu":"Liushi Shan","name_id":"Liushi Shan","name_it":"Liushi Shan","name_ja":"昆侖女神峰","name_ko":"리우시 샨","name_nl":"Liushi Shan","name_pl":"Liushi Shan","name_pt":"Liushi Shan","name_ru":"гора Люши-Шань","name_sv":"Liushi Shan","name_tr":"Liushi Shan","name_vi":"Núi Côn Lôn Nữ Thần Phong","name_zh":"昆仑神女峰","ne_id":1159105531,"name_fa":"لیوشی شان","name_he":"ליושי שאן","name_uk":"Люші-Шань","name_ur":"لیوشی شان","name_zht":"崑崙神女峰"},"bbox":[80.926231,35.322538,80.926231,35.322538],"geometry":{"type":"Point","coordinates":[80.926231,35.322538]}},{"type":"Feature","properties":{"scalerank":7,"featurecla":"mountain","name":"Namcha Barwa","elevation":7782,"comment":null,"name_alt":null,"lat_y":29.643011786,"long_x":95.065684441,"nation1":null,"nation2":null,"note":null,"region":"Asia","subregion":null,"min_zoom":7,"label":null,"wikidataid":"Q1050238","name_ar":"نامشا باروا","name_bn":"নামচা বারওয়া","name_de":"Namjagbarwa","name_en":"Namcha Barwa","name_es":"Namcha Barwa","name_fr":"Namcha Barwa","name_el":"Νάμτσα Μπάργουα","name_hi":"नमचा बरवा","name_hu":"Namcha Barwa","name_id":"Namcha Barwa","name_it":"Namcha Barwa","name_ja":"ナムチャバルワ","name_ko":"남차바르와산","name_nl":"Namjagbarwa","name_pl":"Namcze Barwa","name_pt":"Namcha Barwa","name_ru":"Намча Барва","name_sv":"Namtja Barwa","name_tr":"Namcha Barwa","name_vi":"Namcha Barwa","name_zh":"南迦巴瓦峰","ne_id":1159105533,"name_fa":"نامچا براوا","name_he":null,"name_uk":"Намче Барва","name_ur":"نامچا باروا","name_zht":"南迦巴瓦峰"},"bbox":[95.065707,29.642998,95.065707,29.642998],"geometry":{"type":"Point","coordinates":[95.065707,29.642998]}},{"type":"Feature","properties":{"scalerank":7,"featurecla":"mountain","name":"Sabalon Kuh","elevation":4814,"comment":null,"name_alt":null,"lat_y":38.255072333,"long_x":47.822032097,"nation1":null,"nation2":null,"note":null,"region":"Asia","subregion":null,"min_zoom":7,"label":null,"wikidataid":null,"name_ar":"سبلان كوه","name_bn":"সাবালন কুহ","name_de":"Sabalon Kuh","name_en":"Mount Sabalan","name_es":"Sabalon Kuh","name_fr":"Volcan Savalan","name_el":"Σαμπαλόν Κου","name_hi":"सबलोन कुहू","name_hu":"Sabalon Kuh","name_id":"Sabalon Kuh","name_it":"Sabalon Kuh","name_ja":"サバロン山","name_ko":"사발론 쿠","name_nl":"Sabalan","name_pl":"Sabalan","name_pt":"Monte Sabalan","name_ru":null,"name_sv":"Sabalon Kuh","name_tr":"Sabalon Kuh","name_vi":"Núi Sabalon Kuh","name_zh":"库萨巴隆山","ne_id":1159105567,"name_fa":"کوه سبلان","name_he":"סבלון קוה","name_uk":"Сабалон Кух","name_ur":"سابالون کوہ","name_zht":"沙巴蘭庫"},"bbox":[47.822021,38.255088,47.822021,38.255088],"geometry":{"type":"Point","coordinates":[47.822021,38.255088]}},{"type":"Feature","properties":{"scalerank":4,"featurecla":"mountain","name":"Klyuchevskaya Sopka","elevation":4750,"comment":null,"name_alt":null,"lat_y":56.055975653,"long_x":160.643931511,"nation1":null,"nation2":null,"note":null,"region":"Asia","subregion":null,"min_zoom":6,"label":null,"wikidataid":"Q210252","name_ar":"كلويشيفسكايا سوبكا","name_bn":"ক্ল্যুচেভস্কায়া সোপকা","name_de":"Kljutschewskaja Sopka","name_en":"Klyuchevskaya Sopka","name_es":"Kliuchevskoi","name_fr":"Klioutchevskoï","name_el":"Κλουτσέφκαγια","name_hi":"क्ल्यूचेव्सकाया","name_hu":"Kljucsevszkaja Szopka","name_id":"Klyuchevskaya Sopka","name_it":"Ključevskaja Sopka","name_ja":"クリュチェフスカヤ山","name_ko":"클류쳅스카야산","name_nl":"Kljoetsjevskaja Sopka","name_pl":"Kluczewska Sopka","name_pt":"Klyuchevskaya Sopka","name_ru":"Ключевская Сопка","name_sv":"Kljutjevskaja Sopka","name_tr":"Klyuchevskaya Sopka","name_vi":"Klyuchevskaya Sopka","name_zh":"克柳切夫火山","ne_id":1159105637,"name_fa":"کلوچفسکایا اسپوکا","name_he":"קלוצ׳בסקאיה סופקה","name_uk":"Ключевська Сопка","name_ur":"کلائیوچیوسکایا سوپکا","name_zht":"克柳切夫火山"},"bbox":[160.643937,56.055979,160.643937,56.055979],"geometry":{"type":"Point","coordinates":[160.643937,56.055979]}},{"type":"Feature","properties":{"scalerank":6,"featurecla":"mountain","name":"Mount Damavand","elevation":5610,"comment":null,"name_alt":null,"lat_y":35.95520661,"long_x":52.109019402,"nation1":null,"nation2":null,"note":null,"region":"Asia","subregion":null,"min_zoom":6.7,"label":"Mount Damavand","wikidataid":"Q40758","name_ar":"جبل دمافند","name_bn":"দামভান্দ পর্বত","name_de":"Damavand","name_en":"Damavand","name_es":"Damavand","name_fr":"mont Damavand","name_el":"Νταμαβάντ","name_hi":"दमावंद पर्वत","name_hu":"Damávand","name_id":"Gunung Damavand","name_it":"Damavand","name_ja":"ダマーヴァンド山","name_ko":"다마반드산","name_nl":"Demavend","name_pl":"Demawend","name_pt":"Monte Damavand","name_ru":"Демавенд","name_sv":"Demavend","name_tr":"Demavend Dağı","name_vi":"Núi Damavand","name_zh":"德馬峰","ne_id":1159105649,"name_fa":"دماوند","name_he":"הר דמאוונד","name_uk":"Демавенд","name_ur":"کوہ دماوند","name_zht":"德馬峰"},"bbox":[52.109022,35.955192,52.109022,35.955192],"geometry":{"type":"Point","coordinates":[52.109022,35.955192]}},{"type":"Feature","properties":{"scalerank":6,"featurecla":"mountain","name":"Kuh-e Hezar","elevation":4465,"comment":null,"name_alt":null,"lat_y":29.511603095,"long_x":57.27222741,"nation1":null,"nation2":null,"note":null,"region":"Asia","subregion":null,"min_zoom":6.7,"label":null,"wikidataid":"Q5687603","name_ar":"جبل هزاران","name_bn":"কুহ-এ হেজের","name_de":"Kuh-e Hazar","name_en":"Kūh-e Hezār","name_es":"Kuh-e Hezar","name_fr":"Kōh-e Hazār","name_el":"Κου-ε Χεζάρ","name_hi":"कुह-ए हिज़ार","name_hu":"Kuh-e Hezar","name_id":"Kuh-e Hezar","name_it":"Kuh-e Hezar","name_ja":"クーヘ・ヘザール山","name_ko":"쿠에 헤자르","name_nl":"Kūh-e Hezār","name_pl":"Kuh-e Hezar","name_pt":"Kūh-e Hezār","name_ru":null,"name_sv":"Kūh-e Hezār","name_tr":"Kuh-e Hezar","name_vi":"Núi Hezar","name_zh":"哈扎蘭峰","ne_id":1159105651,"name_fa":"کوه هزار","name_he":"קוה-א הזאר","name_uk":"гора Хезар","name_ur":"کوہ ہیزار","name_zht":"哈扎蘭峰"},"bbox":[57.272277,29.511604,57.272277,29.511604],"geometry":{"type":"Point","coordinates":[57.272277,29.511604]}},{"type":"Feature","properties":{"scalerank":5,"featurecla":"mountain","name":"Otgon Tenger","elevation":4000,"comment":null,"name_alt":null,"lat_y":47.599982001,"long_x":97.550181511,"nation1":null,"nation2":null,"note":null,"region":"Asia","subregion":null,"min_zoom":6,"label":null,"wikidataid":"Q1572208","name_ar":"أوتون تينجر","name_bn":"ওতাগোন তেংগার","name_de":"Otgon Tenger Uul","name_en":"Otgontenger","name_es":"Monte Otgontenger","name_fr":"Otgontenger","name_el":"Οτγκόν Τένγκερ","name_hi":"ओटगॉन टेंगर","name_hu":"Otgontenger-hegy","name_id":"Otgon Tenger","name_it":"Otgon Tenger","name_ja":"オトゴンテンゲル山","name_ko":"오트곤 텐거","name_nl":"Otgontenger","name_pl":"Otgontenger uul","name_pt":"Monte Otgontenger","name_ru":"Отгон-Тэнгэр","name_sv":"Otgon Tenger Uul","name_tr":"Ötügen dağ","name_vi":"Otgontenger","name_zh":"鄂特冈腾格里峰","ne_id":1159105663,"name_fa":"اوتگونتگر","name_he":"אוטגון טנגר","name_uk":"Отгон-Тенгер","name_ur":"اوٹگون ٹینگر","name_zht":"鄂特岡騰格里峰"},"bbox":[97.550193,47.599962,97.550193,47.599962],"geometry":{"type":"Point","coordinates":[97.550193,47.599962]}},{"type":"Feature","properties":{"scalerank":5,"featurecla":"mountain","name":"Magen Gangri","elevation":6282,"comment":null,"name_alt":"Mt. Amnyemaqen","lat_y":34.800116278,"long_x":99.466563347,"nation1":null,"nation2":null,"note":null,"region":"Asia","subregion":null,"min_zoom":6,"label":null,"wikidataid":null,"name_ar":"ماجن جانجري","name_bn":"ম্যাগেন গ্যাংরি","name_de":"Machen Kangri","name_en":"Amne Machin","name_es":"Magen Gangri","name_fr":"Amnye Machen","name_el":"Μάγκεν Γκάνγκρι","name_hi":"मैगन गैंग्री","name_hu":"Magen Gangri","name_id":"Magen Gangri","name_it":"Magen Gangri","name_ja":"マチン山脈","name_ko":"마겐 강리","name_nl":"Amne Machin","name_pl":"Magen Gangri","name_pt":"Maqen Gangri","name_ru":"гора Мачен-Гангри","name_sv":"Magen Gangri","name_tr":"Magen Gangri","name_vi":"Núi Magen Gangri","name_zh":"玛卿岗日山","ne_id":1159105667,"name_fa":"ماگن گانگری","name_he":"מאגראפלט","name_uk":"Магенгангрі","name_ur":"میگن گانگری","name_zht":"馬根崗日山"},"bbox":[99.466612,34.800114,99.466612,34.800114],"geometry":{"type":"Point","coordinates":[99.466612,34.800114]}},{"type":"Feature","properties":{"scalerank":5,"featurecla":"mountain","name":"Nanda Devi","elevation":7817,"comment":null,"name_alt":null,"lat_y":30.542486884,"long_x":79.970957879,"nation1":null,"nation2":null,"note":null,"region":"Asia","subregion":null,"min_zoom":6,"label":null,"wikidataid":"Q26794321","name_ar":"ناندا ديفي","name_bn":"নন্দা দেবী","name_de":"Nanda Devi","name_en":"Nanda Devi","name_es":"Nanda Devi","name_fr":"Nanda Devi","name_el":"Νάντα Ντέβι","name_hi":"नंदा देवी","name_hu":"Nanda Devi","name_id":"Nanda Devi","name_it":"Nanda Devi","name_ja":"ナンダ・デヴィ山","name_ko":"난다 데비","name_nl":"Nanda Devi","name_pl":"Nanda Devi","name_pt":"Nanda Devi","name_ru":"гора На́нда-Де́ви","name_sv":"Nanda Devi","name_tr":"Nanda Devi","name_vi":"Núi Nanda Devi","name_zh":"楠达德维山","ne_id":1159105673,"name_fa":"ناندا دِوی","name_he":"נאנדה דווי","name_uk":"Нанда Деві","name_ur":"ناندا دیوی","name_zht":"南達德維峰"},"bbox":[79.97097,30.542478,79.97097,30.542478],"geometry":{"type":"Point","coordinates":[79.97097,30.542478]}},{"type":"Feature","properties":{"scalerank":4,"featurecla":"mountain","name":"Bogda Feng","elevation":5445,"comment":null,"name_alt":"Bogda Peak","lat_y":43.795111395,"long_x":88.317393425,"nation1":null,"nation2":null,"note":null,"region":"Asia","subregion":null,"min_zoom":6,"label":null,"wikidataid":"Q1037396","name_ar":"قمة بوغدا","name_bn":"বোগদা ফেং","name_de":"Bogda Feng","name_en":"Bogda Peak","name_es":"Bogda Shan","name_fr":"pic Bogda","name_el":"Μπόγντα Φενγκ","name_hi":"बोगदा पर्वत शृंखला","name_hu":"Bogda Feng","name_id":"Bogda Feng","name_it":"Bogda Feng","name_ja":"ボゴダ峰","name_ko":"보거다펑","name_nl":"Bogda Shan","name_pl":"Bogda Feng","name_pt":"Bogda Feng","name_ru":"Богдо-Ула","name_sv":"Bogda Feng","name_tr":"Bogda Zirvesi","name_vi":"Núi Bác Cách Đạt Phong","name_zh":"博格达峰","ne_id":1159105687,"name_fa":"بوگدافنگ","name_he":"בוגדה פנג","name_uk":"Богдо-Ула","name_ur":"بوگڈا فینگ","name_zht":"博格达峰"},"bbox":[88.317405,43.795116,88.317405,43.795116],"geometry":{"type":"Point","coordinates":[88.317405,43.795116]}},{"type":"Feature","properties":{"scalerank":4,"featurecla":"mountain","name":"Pik Imeni Ismail Samani","elevation":7495,"comment":null,"name_alt":null,"lat_y":38.932379462,"long_x":72.021739129,"nation1":null,"nation2":null,"note":null,"region":"Asia","subregion":null,"min_zoom":6,"label":null,"wikidataid":"Q41413","name_ar":"قمة إسماعيل ساماني","name_bn":"পিক ইমেনি ইসমাইল সামানি","name_de":"Pik Ismoil Somoni","name_en":"Ismoil Somoni Peak","name_es":"Pico Ismail Samani","name_fr":"Pic Ismail Samani","name_el":"Ισμοΐλ Σομόνι Πικ","name_hi":"इस्माइल सामानी पर्वत","name_hu":"Iszmoilí Szomoní-csúcs","name_id":"Puncak Ismail Samani","name_it":"Picco Ismail Samani","name_ja":"イスモイル・ソモニ峰","name_ko":"이스모일소모니봉","name_nl":"Ismail Samanipiek","name_pl":"Szczyt Ismaila Samaniego","name_pt":"Pico Ismail Samani","name_ru":"Пик Исмоила Сомони","name_sv":"Pik Ismoil Somoni","name_tr":"Somoni Zirvesi","name_vi":"Đỉnh Ismail Samani","name_zh":"伊斯梅尔·索莫尼峰","ne_id":1159105691,"name_fa":"قله اسماعیل سامانی","name_he":"פסגת אימני איסמעיל סמני","name_uk":"Пік Ісмаїла Самані","name_ur":"کوہ اسماعیل سامانی","name_zht":"伊斯梅尔·索莫尼峰"},"bbox":[72.021746,38.932374,72.021746,38.932374],"geometry":{"type":"Point","coordinates":[72.021746,38.932374]}},{"type":"Feature","properties":{"scalerank":4,"featurecla":"mountain","name":"Gora Manas","elevation":4482,"comment":null,"name_alt":null,"lat_y":42.289984442,"long_x":71.054209832,"nation1":null,"nation2":null,"note":null,"region":"Asia","subregion":null,"min_zoom":6,"label":null,"wikidataid":"Q13171265","name_ar":"جبل ماناس","name_bn":"গোরা মানাস","name_de":"Gora Manas","name_en":"Gora Manas","name_es":"Gora Manas","name_fr":"Gora Manas","name_el":"Γκόρα Μάνας","name_hi":"गोरा मानस","name_hu":"Gora Manas","name_id":"Gora Manas","name_it":"Gora Manas","name_ja":"マナス山","name_ko":"고라 마나스","name_nl":"Gora Manas","name_pl":"Góra Manas","name_pt":"Monte Manas","name_ru":"гора Манас","name_sv":"Gora Manas","name_tr":"Gora Manas","name_vi":"Núi Manas","name_zh":"玛纳斯山","ne_id":1159105693,"name_fa":"گورا ماناس","name_he":"הר מאנס","name_uk":"гора Манас","name_ur":"گورا ماناس","name_zht":"瑪納斯山"},"bbox":[71.054207,42.290005,71.054207,42.290005],"geometry":{"type":"Point","coordinates":[71.054207,42.290005]}},{"type":"Feature","properties":{"scalerank":4,"featurecla":"mountain","name":"Shah Fuladi","elevation":5048,"comment":null,"name_alt":null,"lat_y":34.642096259,"long_x":67.62769616,"nation1":null,"nation2":null,"note":null,"region":"Asia","subregion":null,"min_zoom":6,"label":null,"wikidataid":"Q20191405","name_ar":"شاه فولادي","name_bn":"শাহ ফুলাদি","name_de":"Shah Fuladi","name_en":"Shāh Fōlādī","name_es":"Shah Fuladi","name_fr":"Shāh Fōlādī","name_el":"Σαχ Φουλάδι","name_hi":"शाह फुलादी","name_hu":"Shah Fuladi","name_id":"Shah Fuladi","name_it":"Shah Fuladi","name_ja":"シャー・フラディ","name_ko":"샤 풀라디","name_nl":"Shāh Fōlādī","name_pl":"Shah Fuladi","name_pt":"Shāh Fōlādī","name_ru":"Шахфулади","name_sv":"Shāh Fōlādī","name_tr":"Shah Fuladi","name_vi":"Núi Shah Fuladi","name_zh":"沙阿富拉迪山","ne_id":1159105695,"name_fa":"شاه فولادی","name_he":"שאה פוּלאדי","name_uk":"Шах Фуладі","name_ur":"شاہ فولادی","name_zht":"富拉第山"},"bbox":[67.627708,34.642102,67.627708,34.642102],"geometry":{"type":"Point","coordinates":[67.627708,34.642102]}},{"type":"Feature","properties":{"scalerank":4,"featurecla":"mountain","name":"Kuh-e Jang Qal'eh","elevation":4171,"comment":null,"name_alt":null,"lat_y":33.117010809,"long_x":64.188365105,"nation1":null,"nation2":null,"note":null,"region":"Asia","subregion":null,"min_zoom":6,"label":null,"wikidataid":"Q20190966","name_ar":"جبل جانج قلعة","name_bn":"কুহ-এ জ্যাং কালেহ","name_de":"Kuh-e Jang Qal’eh","name_en":"Kuh-e Jang Qal'eh","name_es":"Kuh-e Jang Qal'eh","name_fr":"Kuh-e Jang Qal'eh","name_el":"Κου-ε Τζανγκ Καλ-ε","name_hi":"कुह-ए जंग कले'एह","name_hu":"Kuh-e Jang Qal'eh","name_id":"Kuh-e Jang Qal'eh","name_it":"Kuh-e Jang Qal'eh","name_ja":"クーヘ・ジャン・カレヘ山","name_ko":"구 장 칼레","name_nl":"Kuh-e Jang Qal’eh","name_pl":"Kuh-e Jang Qal'eh","name_pt":"Kūh-e Jang Qal`eh","name_ru":null,"name_sv":"Kuh-e Jang Qal'eh","name_tr":"Kuh-e Jang Qal'eh","name_vi":"Núi Jang Qal'eh","name_zh":"江盖勒山","ne_id":1159105697,"name_fa":"کوه جنگ قله","name_he":"קוה-א ג'אנג קאלה","name_uk":"гора Джанг-Квалех","name_ur":"کوہ جنگ قالیہ","name_zht":"杰奎山"},"bbox":[64.188365,33.116997,64.188365,33.116997],"geometry":{"type":"Point","coordinates":[64.188365,33.116997]}},{"type":"Feature","properties":{"scalerank":3,"featurecla":"mountain","name":"Gongga Shan","elevation":7556,"comment":null,"name_alt":null,"lat_y":29.595770575,"long_x":101.879161004,"nation1":null,"nation2":null,"note":null,"region":"Asia","subregion":null,"min_zoom":5.1,"label":null,"wikidataid":"Q1537157","name_ar":"جبل غونغا","name_bn":"গোনজ্ঞা শান","name_de":"Gongga Shan","name_en":"Mount Gongga","name_es":"Monte Gongga","name_fr":"Minya Konka","name_el":"Γκόνγκα","name_hi":"माउंट गॉन्गा","name_hu":"Gongga Shan","name_id":"Gunung Gongga","name_it":"Gongga Shan","name_ja":"ミニヤコンカ","name_ko":"공가 샨","name_nl":"Mount Gongga","name_pl":"Minya Konka","name_pt":"Gongga Shan","name_ru":"Гонгга","name_sv":"Gongga Shan","name_tr":"Gongga Shan","name_vi":"Núi Gongga","name_zh":"贡嘎山","ne_id":1159105703,"name_fa":"گونگا شان","name_he":"גונגה שאן","name_uk":"Гонгха Шан","name_ur":"گونگا شان","name_zht":"贡嘎山"},"bbox":[101.87912,29.59578,101.87912,29.59578],"geometry":{"type":"Point","coordinates":[101.87912,29.59578]}},{"type":"Feature","properties":{"scalerank":3,"featurecla":"mountain","name":"Dhaulagiri","elevation":8172,"comment":null,"name_alt":null,"lat_y":28.696478583,"long_x":83.4951278,"nation1":null,"nation2":null,"note":null,"region":"Asia","subregion":null,"min_zoom":5.1,"label":null,"wikidataid":"Q165440","name_ar":"دهاولاغيري","name_bn":"ধবলগিরি","name_de":"Dhaulagiri","name_en":"Dhaulagiri","name_es":"Dhaulagiri","name_fr":"Dhaulagiri","name_el":"Νταουλαγκίρι","name_hi":"धौलागिरी","name_hu":"Dhaulagiri","name_id":"Dhaulagiri","name_it":"Dhaulagiri","name_ja":"ダウラギリ","name_ko":"다울라기리","name_nl":"Dhaulagiri","name_pl":"Dhaulagiri","name_pt":"Dhaulagiri","name_ru":"Дхаулагири","name_sv":"Dhaulagiri","name_tr":"Dhaulagiri","name_vi":"Dhaulagiri","name_zh":"道拉吉里峰","ne_id":1159105705,"name_fa":"دهالاگیری","name_he":"דהולאגרי","name_uk":"Дхаулагірі","name_ur":"دہولاگری","name_zht":"道拉吉里峰"},"bbox":[83.495136,28.696462,83.495136,28.696462],"geometry":{"type":"Point","coordinates":[83.495136,28.696462]}},{"type":"Feature","properties":{"scalerank":3,"featurecla":"mountain","name":"Belukha","elevation":4506,"comment":null,"name_alt":null,"lat_y":49.807074286,"long_x":86.606333855,"nation1":null,"nation2":null,"note":null,"region":"Asia","subregion":null,"min_zoom":5.1,"label":null,"wikidataid":"Q724367","name_ar":"جبل بيلوكا","name_bn":"বেলুখা","name_de":"Belucha","name_en":"Belukha Mountain","name_es":"Beluja","name_fr":"mont Béloukha","name_el":"Όρος Μπελούκα","name_hi":"बेलुखा पर्वत","name_hu":"Beluha","name_id":"Belukha","name_it":"Belucha","name_ja":"ベルーハ山","name_ko":"벨루하산","name_nl":"Beloecha","name_pl":"Biełucha","name_pt":"Monte Belukha","name_ru":"Белуха","name_sv":"Belucha","name_tr":"Beluça","name_vi":"Núi Belukha","name_zh":"别卢哈山","ne_id":1159105709,"name_fa":"کوه بلوخا","name_he":"בלוקה","name_uk":"Бєлуха","name_ur":"بیلوکھا","name_zht":"別盧哈山"},"bbox":[86.606337,49.807079,86.606337,49.807079],"geometry":{"type":"Point","coordinates":[86.606337,49.807079]}},{"type":"Feature","properties":{"scalerank":3,"featurecla":"mountain","name":"Nganglong Kangri","elevation":6720,"comment":null,"name_alt":null,"lat_y":32.81659577,"long_x":80.999888543,"nation1":null,"nation2":null,"note":null,"region":"Asia","subregion":null,"min_zoom":5.1,"label":null,"wikidataid":"Q4062402","name_ar":"إنجانجلونغ كانغري","name_bn":"এঙ্গাংলং কাংগরি","name_de":"Nganglong Kangri","name_en":"Nganglong Mountains","name_es":"Nganglong Kangri","name_fr":"Nganglong Kangri","name_el":"Νγκανγκλονγκ Κάνγκρι","name_hi":"एनगांगलांग कांगरी","name_hu":"Nganglong Kangri","name_id":"Nganglong Kangri","name_it":"Nganglong Kangri","name_ja":"港龍崗日","name_ko":"응강롱 캉리","name_nl":"Nganglong Kangri","name_pl":"Nganglong Kangri","name_pt":"Nganglong Kangri","name_ru":"Алинг-Гангри","name_sv":"Nganglong Kangri","name_tr":"Nganglong Kangri","name_vi":"Núi Nganglong Kangri","name_zh":"昂龙岗日山","ne_id":1159105711,"name_fa":"نگانگلونگ کانگری","name_he":"ננגלונג קאנגרי","name_uk":"Нганглонг Кангрі","name_ur":"انگانگلونگ کینگری","name_zht":"昂隆革吉山"},"bbox":[80.999905,32.816604,80.999905,32.816604],"geometry":{"type":"Point","coordinates":[80.999905,32.816604]}},{"type":"Feature","properties":{"scalerank":3,"featurecla":"mountain","name":"Geladandong","elevation":6621,"comment":null,"name_alt":"Geladaindong","lat_y":33.416632391,"long_x":91.083384636,"nation1":null,"nation2":null,"note":null,"region":"Asia","subregion":null,"min_zoom":5.1,"label":null,"wikidataid":"Q5530346","name_ar":"جيلاديندونغ","name_bn":"গেলাডাংদং","name_de":"Geladaindong","name_en":"Geladaindong Peak","name_es":"Geladandong","name_fr":"Geladaindong","name_el":"Γκελαντανντονγκ","name_hi":"गेलाडांडोंग","name_hu":"Geladandong","name_id":"Geladandong","name_it":"Geladandong","name_ja":"ゴラタントン山","name_ko":"젤라단동","name_nl":"Geladaindong Peak","name_pl":"Geladandong","name_pt":"Geladaindong","name_ru":"гора Геладайндонг","name_sv":"Geladaindong","name_tr":"Geladandong","name_vi":"Núi Các Lạp Đan Đông","name_zh":"各拉丹冬峰","ne_id":1159105713,"name_fa":"گلاداندونگ","name_he":"גלאדאנגדונג","name_uk":"Геладайндонг","name_ur":"گیلاڈینگ ڈانگ","name_zht":"各拉丹冬峰"},"bbox":[91.08342,33.416621,91.08342,33.416621],"geometry":{"type":"Point","coordinates":[91.08342,33.416621]}},{"type":"Feature","properties":{"scalerank":1,"featurecla":"mountain","name":"Mount Everest","elevation":8848,"comment":"Worlds highest point","name_alt":null,"lat_y":27.980475165,"long_x":86.880625847,"nation1":null,"nation2":null,"note":null,"region":"Asia","subregion":null,"min_zoom":4,"label":null,"wikidataid":"Q513","name_ar":"جبل إفرست","name_bn":"এভারেস্ট পর্বত","name_de":"Mount Everest","name_en":"Mount Everest","name_es":"Everest","name_fr":"Everest","name_el":"Έβερεστ","name_hi":"एवरेस्ट पर्वत","name_hu":"Csomolungma","name_id":"Everest","name_it":"Everest","name_ja":"エベレスト","name_ko":"에베레스트산","name_nl":"Mount Everest","name_pl":"Mount Everest","name_pt":"Evereste","name_ru":"Джомолунгма","name_sv":"Mount Everest","name_tr":"Everest Dağı","name_vi":"Everest","name_zh":"珠穆朗玛峰","ne_id":1159105715,"name_fa":"کوه اورست","name_he":"אוורסט","name_uk":"Джомолунгма","name_ur":"ماؤنٹ ایورسٹ","name_zht":"珠穆朗瑪峰"},"bbox":[86.880596,27.980481,86.880596,27.980481],"geometry":{"type":"Point","coordinates":[86.880596,27.980481]}},{"type":"Feature","properties":{"scalerank":4,"featurecla":"mountain","name":"Kangtö","elevation":7060,"comment":null,"name_alt":null,"lat_y":27.874701239,"long_x":92.531993035,"nation1":null,"nation2":null,"note":null,"region":"Asia","subregion":null,"min_zoom":6,"label":null,"wikidataid":"Q6362901","name_ar":"كانجتو","name_bn":"কাংগটো","name_de":"Kangto","name_en":"Kangto","name_es":"Kangtö","name_fr":"Kangtö","name_el":"Κανγτό","name_hi":"कंगतो पर्वत","name_hu":"Kangtö","name_id":"Kangto","name_it":"Kangtö","name_ja":"カント山","name_ko":"강토","name_nl":"Kangto","name_pl":"Kanggardo","name_pt":"Kangtö","name_ru":"гора Кангто","name_sv":"Kanggardo Rizê","name_tr":"Kangtö","name_vi":"Núi Kangtö","name_zh":"康格多山","ne_id":1159105717,"name_fa":"کانگتو","name_he":"קאנגטו","name_uk":"Кангто","name_ur":"کانگٹو","name_zht":"康格多山"},"bbox":[92.532024,27.874695,92.532024,27.874695],"geometry":{"type":"Point","coordinates":[92.532024,27.874695]}},{"type":"Feature","properties":{"scalerank":6,"featurecla":"mountain","name":"Nyainqentanglha Feng","elevation":7162,"comment":null,"name_alt":null,"lat_y":30.390204169,"long_x":90.588511589,"nation1":null,"nation2":null,"note":null,"region":"Asia","subregion":null,"min_zoom":6.7,"label":"Nyainqentanglha Feng","wikidataid":"Q1109058","name_ar":"نيشين تانجلها","name_bn":"ন্যাইনকুয়েন্তাংলহা ফেং","name_de":"Nyenchen Tanglha","name_en":"Mount Nyenchen Tanglha","name_es":"Monte Nyenchen Tanglha","name_fr":"mont Nyainqentanglha","name_el":"Νιαϊνγκετάνγλχα Φενγκ","name_hi":"न्येनचेन थंगल्हा पर्वत","name_hu":"Nyainqentanglha Feng","name_id":"Nyainqentanglha Feng","name_it":"Nyainqentanglha Feng","name_ja":"ニェンチェンタンラ山","name_ko":"냐인첸탕글라 펑","name_nl":"Mount Nyenchen Tanglha","name_pl":"Nyainqentanglha Feng","name_pt":"Monte Nyenchen Tanglha","name_ru":"гора Ньэнчента́нглха","name_sv":"Nyainqêntanglha Feng","name_tr":"Nyainqentanglha Feng","name_vi":"Núi Niệm Thanh Đường Cổ Lạp Phong","name_zh":"念青唐古拉峰","ne_id":1159105719,"name_fa":"نیائینکنتانگلها فنگ","name_he":"ניאיינקנטאנגלה פנג","name_uk":"Нянчентанґлха","name_ur":"نیانقینٹانگھلا فینگ","name_zht":"念青唐古拉峰"},"bbox":[90.588543,30.390202,90.588543,30.390202],"geometry":{"type":"Point","coordinates":[90.588543,30.390202]}},{"type":"Feature","properties":{"scalerank":2,"featurecla":"mountain","name":"K2","elevation":8611,"comment":null,"name_alt":null,"lat_y":35.882391669,"long_x":76.513194207,"nation1":null,"nation2":null,"note":null,"region":"Asia","subregion":null,"min_zoom":5,"label":null,"wikidataid":"Q43512","name_ar":"جبل كي 2","name_bn":"কে২","name_de":"K2","name_en":"K2","name_es":"K2","name_fr":"K2","name_el":"Κ2","name_hi":"के२","name_hu":"K2","name_id":"K2","name_it":"K2","name_ja":"K2","name_ko":"케이투","name_nl":"K2","name_pl":"K2","name_pt":"K2","name_ru":"Чогори","name_sv":"K2","name_tr":"K2 Dağı","name_vi":"K2","name_zh":"喬戈里峰","ne_id":1159105729,"name_fa":"کی۲","name_he":"K2","name_uk":"K2","name_ur":"کے ٹو","name_zht":"喬戈里峰"},"bbox":[76.513209,35.882406,76.513209,35.882406],"geometry":{"type":"Point","coordinates":[76.513209,35.882406]}},{"type":"Feature","properties":{"scalerank":2,"featurecla":"mountain","name":"Muztag Feng","elevation":6973,"comment":null,"name_alt":"Ulugh Muztag","lat_y":36.416510321,"long_x":87.413218621,"nation1":null,"nation2":null,"note":null,"region":"Asia","subregion":null,"min_zoom":5,"label":null,"wikidataid":"Q1560829","name_ar":"موزتاج فينغ","name_bn":"মুজতাগ ফেং","name_de":"Ulugh Muztagh","name_en":"Ulugh Muztagh","name_es":"Ulugh Muztagh","name_fr":"Ulugh Muztagh","name_el":"Μούζταγκ Φενγκ","name_hi":"मुज़्टैग फेंग","name_hu":"Muztag Feng","name_id":"Muztag Feng","name_it":"Muztag Feng","name_ja":"ウルグ・ムズタグ山","name_ko":"무즈타그 펑","name_nl":"Ulugh Muztagh","name_pl":"Ulug Muztag","name_pt":"Ulugh Muztagh","name_ru":"Улугмузтаг","name_sv":"Muztag Feng","name_tr":"Uluğ Muzdağ","name_vi":"Núi Mộc Tư Tháp Cách Phong","name_zh":"木孜塔格山","ne_id":1159105731,"name_fa":"موزتاگ فنگ","name_he":"מוואנסה","name_uk":"Улугмузтаг","name_ur":"اولوغ موز تاغ","name_zht":"木孜塔格山"},"bbox":[87.413199,36.416504,87.413199,36.416504],"geometry":{"type":"Point","coordinates":[87.413199,36.416504]}},{"type":"Feature","properties":{"scalerank":2,"featurecla":"mountain","name":"Kailash","elevation":6638,"comment":null,"name_alt":null,"lat_y":31.06659577,"long_x":81.312510613,"nation1":null,"nation2":null,"note":null,"region":"Asia","subregion":null,"min_zoom":5,"label":null,"wikidataid":"Q229107","name_ar":"جبل كايلاش","name_bn":"কৈলাস পর্বত","name_de":"Kailash","name_en":"Mount Kailash","name_es":"Kailash","name_fr":"Kailash","name_el":"Καΐλας","name_hi":"कैलाश पर्वत","name_hu":"Kajlás-hegy","name_id":"Gunung Kailash","name_it":"Kailash","name_ja":"カイラス山","name_ko":"카일라스산","name_nl":"Kailash","name_pl":"Kajlas","name_pt":"Monte Kailash","name_ru":"Кайлас","name_sv":"Kailash","name_tr":"Kailaş Dağı","name_vi":"Núi Kailash","name_zh":"冈仁波齐峰","ne_id":1159105733,"name_fa":"کوه کایلاش","name_he":"הר קאילאש","name_uk":"Кайлас","name_ur":"کیلاش","name_zht":"岡仁波齊峰"},"bbox":[81.312536,31.066599,81.312536,31.066599],"geometry":{"type":"Point","coordinates":[81.312536,31.066599]}},{"type":"Feature","properties":{"scalerank":9,"featurecla":"mountain","name":"Zard Kuh","elevation":4548,"comment":null,"name_alt":null,"lat_y":32.370001532,"long_x":50.089976433,"nation1":"IR","nation2":null,"note":"From PeakBagger.com, with kind permission.","region":"Asia","subregion":null,"min_zoom":7.2,"label":null,"wikidataid":"Q147826","name_ar":"زرد كوه","name_bn":"জারদ কুহ","name_de":"Zard Kuh","name_en":"Zard Kuh","name_es":"Zard Kuh","name_fr":"Zard Kuh","name_el":"Ζαρντ Κουχ","name_hi":"ज़र्द कुह","name_hu":"Zard Kuh","name_id":"Zard Kuh","name_it":"Zard Kuh","name_ja":"ザルド山","name_ko":"자드 쿠","name_nl":"Zard Kūh","name_pl":"Zard Kuh","name_pt":"Zard Kuh","name_ru":"Зерд-Кух","name_sv":"Zard Kūh","name_tr":"Zard Kuh","name_vi":"Núi Zard Kuh","name_zh":"扎德·庫山","ne_id":1159105735,"name_fa":"زردکوه","name_he":"זארד קוה","name_uk":"Зард Кух","name_ur":"زرد کوہ","name_zht":"扎德·庫山"},"bbox":[50.090009,32.369995,50.090009,32.369995],"geometry":{"type":"Point","coordinates":[50.090009,32.369995]}},{"type":"Feature","properties":{"scalerank":9,"featurecla":"mountain","name":"Tirich Mir","elevation":7708,"comment":null,"name_alt":null,"lat_y":36.250006415,"long_x":71.839976433,"nation1":"PK","nation2":null,"note":"From PeakBagger.com, with kind permission.","region":"Asia","subregion":null,"min_zoom":7.2,"label":null,"wikidataid":"Q207132","name_ar":"تيريش مير","name_bn":"তিরিচমির","name_de":"Tirich Mir","name_en":"Tirich Mir","name_es":"Tirich Mir","name_fr":"Tirich Mir","name_el":"Τίριχ Μιρ","name_hi":"तिरिच मीर","name_hu":"Tiricsmir","name_id":"Tirich Mir","name_it":"Tirich Mir","name_ja":"ティリチミール","name_ko":"티리치미르","name_nl":"Tirich Mir","name_pl":"Tiricz Mir","name_pt":"Tirich Mir","name_ru":"Тиричмир","name_sv":"Tirich Mir","name_tr":"Tirich Mir","name_vi":"Tirich Mir","name_zh":"蒂里杰米尔峰","ne_id":1159105751,"name_fa":"تیریچ میر","name_he":"טיריך מיר","name_uk":"Тіріч-Мір","name_ur":"ترچ میر","name_zht":"蒂里傑米爾峰"},"bbox":[71.839984,36.25001,71.839984,36.25001],"geometry":{"type":"Point","coordinates":[71.839984,36.25001]}},{"type":"Feature","properties":{"scalerank":9,"featurecla":"mountain","name":"Tavan Bogd Uul","elevation":4374,"comment":null,"name_alt":null,"lat_y":49.149969794,"long_x":87.819956902,"nation1":"MN","nation2":"CN","note":"From PeakBagger.com, with kind permission.","region":"Asia","subregion":null,"min_zoom":7.2,"label":null,"wikidataid":"Q143008","name_ar":"تافان بوجد أول","name_bn":"টাভান বগড উল","name_de":"Tawan Bogd","name_en":"Tavan Bogd","name_es":"Tavan Bogd Uul","name_fr":"Tavan Bogd","name_el":"Ταβάν Μπογντ Ουλ","name_hi":"तवन बोगड उलू","name_hu":"Tavan Bogd Uul","name_id":"Tavan Bogd Uul","name_it":"Tavan Bogd uul","name_ja":"タワン・ボグド山","name_ko":"타반보그드산","name_nl":"Tavan Bogd","name_pl":"Tawan Bogd uul","name_pt":"Monte Tavan Bogd","name_ru":"Таван-Богдо-Ула","name_sv":"Tavan Bogd Uul","name_tr":"Tavan Bogd","name_vi":"Núi Tavan Bogd Uul","name_zh":"塔弯博格多","ne_id":1159105755,"name_fa":"تاوان بوگد","name_he":"טאבאן בוֹגְד אוּל","name_uk":"Таван-Богдо-Ула","name_ur":"تاوان بوگڈ اول","name_zht":"塔彎博格多"},"bbox":[87.819943,49.149949,87.819943,49.149949],"geometry":{"type":"Point","coordinates":[87.819943,49.149949]}},{"type":"Feature","properties":{"scalerank":9,"featurecla":"mountain","name":"Sikaram","elevation":4755,"comment":null,"name_alt":null,"lat_y":34.039984442,"long_x":69.900035027,"nation1":"AF","nation2":null,"note":"From PeakBagger.com, with kind permission.","region":"Asia","subregion":null,"min_zoom":7.2,"label":null,"wikidataid":"Q21737779","name_ar":"سيكارام","name_bn":"সিকারাম","name_de":"Sikaram Sar","name_en":"Sikaram","name_es":"Sikaram","name_fr":"Sikaram","name_el":"Σικαράμ","name_hi":"सिकारामी","name_hu":"Sikaram","name_id":"Sikaram","name_it":"Sikaram","name_ja":"シカラム山","name_ko":"시카람","name_nl":"Sikaram","name_pl":"Sikaram","name_pt":"Sikaram","name_ru":"гора Сикарам","name_sv":"Sikaram","name_tr":"Sikaram","name_vi":"Núi Sikaram","name_zh":"锡卡拉姆山","ne_id":1159105759,"name_fa":"سیکارام","name_he":"סיקאראם","name_uk":"Сікарам","name_ur":"سیکارام","name_zht":"錫卡拉姆山"},"bbox":[69.900058,34.039985,69.900058,34.039985],"geometry":{"type":"Point","coordinates":[69.900058,34.039985]}},{"type":"Feature","properties":{"scalerank":9,"featurecla":"mountain","name":"Shahi Kangri","elevation":6934,"comment":null,"name_alt":null,"lat_y":35.169989325,"long_x":77.829966668,"nation1":"IN","nation2":null,"note":"From PeakBagger.com, with kind permission.","region":"Asia","subregion":null,"min_zoom":7.2,"label":"Shahi Kangri","wikidataid":"Q2102394","name_ar":"شاهي كانغري","name_bn":"সাসের কাংরি","name_de":"Saser Kangri","name_en":"Saser Kangri","name_es":"Saser Kangri","name_fr":"Saser Kangri","name_el":"Σαχί Κανγξρί","name_hi":"ससेर कांगरी","name_hu":"Shahi Kangri","name_id":"Shahi Kangri","name_it":"Saser Kangri","name_ja":"サセルカンリⅡ峰","name_ko":"샤히 캉리","name_nl":"Saser Kangri","name_pl":"Saser Kangri","name_pt":"Saser Kangri","name_ru":"гора Шахи-Кангри","name_sv":"Saser Kangri","name_tr":"Shahi Kangri","name_vi":"Núi Shahi Kangri","name_zh":"莎瑟峰","ne_id":1159105763,"name_fa":"ساسر کانگری","name_he":"שאהי קאנגרי","name_uk":"Сасер Кангрі","name_ur":"ساسیر کانگری","name_zht":"莎瑟峰"},"bbox":[77.829975,35.169979,77.829975,35.169979],"geometry":{"type":"Point","coordinates":[77.829975,35.169979]}},{"type":"Feature","properties":{"scalerank":9,"featurecla":"mountain","name":"Purog Kangri","elevation":6929,"comment":null,"name_alt":null,"lat_y":33.919989325,"long_x":89.20997155,"nation1":"CN","nation2":null,"note":"From PeakBagger.com, with kind permission.","region":"Asia","subregion":null,"min_zoom":7.2,"label":null,"wikidataid":"Q2118899","name_ar":"بوروغ كانغري","name_bn":"পুরগ কাংরি","name_de":"Purog Kangri","name_en":"Purog Kangri","name_es":"Purog Kangri","name_fr":"Purog Kangri","name_el":"Πουρόγκ Κάνγκρι","name_hi":"पुरोग कांगरी","name_hu":"Purog Kangri","name_id":"Purog Kangri","name_it":"Purog Kangri","name_ja":"普若崗日","name_ko":"퓨록 캉그리","name_nl":"Purog Kangri","name_pl":"Purog Kangri","name_pt":"Purog Kangri","name_ru":"гора Пурог-Кангри","name_sv":"Purog Kangri","name_tr":"Purog Kangri","name_vi":"Núi Purog Kangri","name_zh":"普若岗日","ne_id":1159105771,"name_fa":"پوروگ کانگری","name_he":"קונגרי פורוג","name_uk":"Пурог Кангрі","name_ur":"پورنگ کانگری","name_zht":"普若岗日"},"bbox":[89.209978,33.919981,89.209978,33.919981],"geometry":{"type":"Point","coordinates":[89.209978,33.919981]}},{"type":"Feature","properties":{"scalerank":9,"featurecla":"mountain","name":"Pik Pobeda","elevation":7439,"comment":null,"name_alt":null,"lat_y":42.039984442,"long_x":80.130015496,"nation1":"KG","nation2":"CN","note":"From PeakBagger.com, with kind permission.","region":"Asia","subregion":null,"min_zoom":7.2,"label":null,"wikidataid":"Q332762","name_ar":"جبل جينجيش تشوكوسو","name_bn":"পিক পোবেদা","name_de":"Dschengisch Tschokusu","name_en":"Jengish Chokusu","name_es":"Pico Jengish Chokusu","name_fr":"Jengish Chokusu","name_el":"Πικ Πομπέδα","name_hi":"जेन्गिश चोकुसु","name_hu":"Győzelem-csúcs","name_id":"Gunung Pobeda","name_it":"Jengish Chokusu","name_ja":"ポベーダ山","name_ko":"포베다산","name_nl":"Dzjengisj Tjokusu","name_pl":"Szczyt Zwycięstwa","name_pt":"Pico Jengish Chokusu","name_ru":"Пик Победы","name_sv":"Dzjengisj Tjokusu","name_tr":"Zafer Doruğu","name_vi":"Jengish Chokusu","name_zh":"托木尔峰","ne_id":1159105775,"name_fa":"جنگیش چوکوسو","name_he":"פסגת פובדה","name_uk":"Пік Перемоги","name_ur":"پک پروبیدا","name_zht":"托木爾峰"},"bbox":[80.130032,42.039981,80.130032,42.039981],"geometry":{"type":"Point","coordinates":[80.130032,42.039981]}},{"type":"Feature","properties":{"scalerank":9,"featurecla":"mountain","name":"Pik Karakol","elevation":5216,"comment":null,"name_alt":null,"lat_y":42.159979559,"long_x":78.45997155,"nation1":"KG","nation2":null,"note":"From PeakBagger.com, with kind permission.","region":"Asia","subregion":null,"min_zoom":7.2,"label":null,"wikidataid":"Q21519918","name_ar":"بيك كاراكول","name_bn":"পিক কারাকোল","name_de":"Pik Karakol","name_en":"Pik Karakol","name_es":"Pik Karakol","name_fr":"Pic Karakol","name_el":"Πικ Καρακόλ","name_hi":"पिक कराकोली","name_hu":"Pik Karakol","name_id":"Gunung Karakol","name_it":"Pik Karakol","name_ja":"カラコルピーク","name_ko":"픽 카라콜","name_nl":"Pik Karakol","name_pl":"Karakol","name_pt":"Pico Karakol","name_ru":"пик Каракольский","name_sv":"Pik Karakol","name_tr":"Pik Karakol","name_vi":"Núi Karakol","name_zh":"卡拉科尔山","ne_id":1159105777,"name_fa":"قله کاراکول","name_he":"פסגת קראקול","name_uk":"пік Караколь","name_ur":"پک کیراکول","name_zht":"卡拉科爾山"},"bbox":[78.459922,42.159984,78.459922,42.159984],"geometry":{"type":"Point","coordinates":[78.459922,42.159984]}},{"type":"Feature","properties":{"scalerank":9,"featurecla":"mountain","name":"Nowshak","elevation":7492,"comment":null,"name_alt":null,"lat_y":36.422125555,"long_x":71.781138543,"nation1":"AF","nation2":"PK","note":"From PeakBagger.com, with kind permission.","region":"Asia","subregion":null,"min_zoom":7.2,"label":null,"wikidataid":"Q271700","name_ar":"نوشاق","name_bn":"নোওয়াশাক","name_de":"Noshak","name_en":"Noshaq","name_es":"Nowshak","name_fr":"Nowshak","name_el":"Νοσάκ","name_hi":"नोशक पर्वत","name_hu":"Novsak","name_id":"Noshaq","name_it":"Noshaq","name_ja":"ノシャック","name_ko":"노샤크산","name_nl":"Noshaq","name_pl":"Noszak","name_pt":"Noshaq","name_ru":"Ношак","name_sv":"Nowshak","name_tr":"Noşak","name_vi":"Noshaq","name_zh":"诺沙克峰","ne_id":1159105789,"name_fa":"نوشاخ","name_he":"נוושאק","name_uk":"Ношак","name_ur":"نوشاخ","name_zht":"諾沙克峰"},"bbox":[71.781093,36.422118,71.781093,36.422118],"geometry":{"type":"Point","coordinates":[71.781093,36.422118]}},{"type":"Feature","properties":{"scalerank":9,"featurecla":"mountain","name":"Nanga Parbat","elevation":8125,"comment":null,"name_alt":null,"lat_y":35.239996649,"long_x":74.589976433,"nation1":"PK","nation2":null,"note":"From PeakBagger.com, with kind permission.","region":"Asia","subregion":null,"min_zoom":7.2,"label":null,"wikidataid":"Q130736","name_ar":"نانكا بربت","name_bn":"নাঙ্গা পর্বত","name_de":"Nanga Parbat","name_en":"Nanga Parbat","name_es":"Nanga Parbat","name_fr":"Nanga Parbat","name_el":"Νάνγκα Παρμπάτ","name_hi":"नंगा परबत","name_hu":"Nanga Parbat","name_id":"Nanga Parbat","name_it":"Nanga Parbat","name_ja":"ナンガ・パルバット","name_ko":"낭가파르바트","name_nl":"Nanga Parbat","name_pl":"Nanga Parbat","name_pt":"Nanga Parbat","name_ru":"Нангапарбат","name_sv":"Nanga Parbat","name_tr":"Nanga Parbat Dağı","name_vi":"Nanga Parbat","name_zh":"南迦帕尔巴特峰","ne_id":1159105791,"name_fa":"نانگا پاربات","name_he":"ננגה פרבט","name_uk":"Нангапарбат","name_ur":"نانگا پربت","name_zht":"南迦帕爾巴特峰"},"bbox":[74.590005,35.239978,74.590005,35.239978],"geometry":{"type":"Point","coordinates":[74.590005,35.239978]}},{"type":"Feature","properties":{"scalerank":9,"featurecla":"mountain","name":"Mount Ararat","elevation":5137,"comment":null,"name_alt":null,"lat_y":39.700079657,"long_x":44.299937371,"nation1":"TR","nation2":null,"note":"From PeakBagger.com, with kind permission.","region":"Asia","subregion":null,"min_zoom":7.2,"label":null,"wikidataid":"Q72303","name_ar":"جبل أرارات","name_bn":"আরারাত পর্বত","name_de":"Ararat","name_en":"Mount Ararat","name_es":"Monte Ararat","name_fr":"mont Ararat","name_el":"Αραράτ","name_hi":"अराराट पर्वत","name_hu":"Ararát-hegy","name_id":"Ararat","name_it":"Ararat","name_ja":"アララト山","name_ko":"아라라트산","name_nl":"Ararat","name_pl":"Ararat","name_pt":"Monte Ararat","name_ru":"Арарат","name_sv":"Ararat","name_tr":"Ağrı Dağı","name_vi":"Núi Ararat","name_zh":"亞拉拉特山","ne_id":1159105799,"name_fa":"کوه آرارات","name_he":"אררט","name_uk":"Арарат","name_ur":"ارارات","name_zht":"亞拉拉特山"},"bbox":[44.299957,39.700097,44.299957,39.700097],"geometry":{"type":"Point","coordinates":[44.299957,39.700097]}},{"type":"Feature","properties":{"scalerank":9,"featurecla":"mountain","name":"Lunpo Gangri","elevation":7095,"comment":null,"name_alt":null,"lat_y":29.83008454,"long_x":84.609995964,"nation1":"CN","nation2":null,"note":"From PeakBagger.com, with kind permission.","region":"Asia","subregion":null,"min_zoom":7.2,"label":null,"wikidataid":"Q8536063","name_ar":"لونبو جانجري","name_bn":"লুনপো গাংরি","name_de":"Loinbo Kangri","name_en":"Lunpo Gangri","name_es":"Lunpo Gangri","name_fr":"Loinbo Kangri","name_el":"Λούνπο Γκάνγκρι","name_hi":"लुनपो गंगरी","name_hu":"Lunpo Gangri","name_id":"Lunpo Gangri","name_it":"Lunpo Gangri","name_ja":"ランポーガンリ","name_ko":"룬포 강리","name_nl":"Lunpo Gangri","name_pl":"Lunpo Gangri","name_pt":"Lunpo Gangri","name_ru":"гора Лунпо-Гангри","name_sv":"Loinbo Kangri","name_tr":"Lunpo Gangri","name_vi":"Núi Lunpo Gangri","name_zh":"冷布岗日山","ne_id":1159105803,"name_fa":"لونپو گانگری","name_he":"אגם לואומה","name_uk":"Лунпо Ґангрі","name_ur":"لنپو گانگری","name_zht":"倫坡崗日山"},"bbox":[84.610024,29.830092,84.610024,29.830092],"geometry":{"type":"Point","coordinates":[84.610024,29.830092]}},{"type":"Feature","properties":{"scalerank":9,"featurecla":"mountain","name":"Kuh-e Dinar","elevation":4409,"comment":null,"name_alt":null,"lat_y":30.950079657,"long_x":51.439829949,"nation1":"IR","nation2":null,"note":"From PeakBagger.com, with kind permission.","region":"Asia","subregion":null,"min_zoom":7.2,"label":null,"wikidataid":"Q3143042","name_ar":"جبل دينار","name_bn":"কুহ-এ দিনার","name_de":"Dena","name_en":"Dena","name_es":"Monte Dena","name_fr":"mont Dena","name_el":"Κου-ε Ντινάρ","name_hi":"कुह-ए दिनार","name_hu":"Kuh-e Dinar","name_id":"Kuh-e Dinar","name_it":"Kuh-e Dinar","name_ja":"デナー山","name_ko":"쿠에 디나르","name_nl":"Kūh-e Dīnār","name_pl":"Kuh-e Dinar","name_pt":"Kūh-e Dīnār","name_ru":"Заповедник Дена","name_sv":"Kūh-e Dīnār","name_tr":"Kuh-e Dinar","name_vi":"Núi Dena","name_zh":"德纳山","ne_id":1159105817,"name_fa":"دنا","name_he":"קוה-דינר","name_uk":"гора Дена","name_ur":"کوہ دینار","name_zht":"德納山"},"bbox":[51.439814,30.950069,51.439814,30.950069],"geometry":{"type":"Point","coordinates":[51.439814,30.950069]}},{"type":"Feature","properties":{"scalerank":9,"featurecla":"mountain","name":"Kongkoerh","elevation":7649,"comment":null,"name_alt":null,"lat_y":38.590094305,"long_x":75.309825066,"nation1":"CN","nation2":null,"note":"From PeakBagger.com, with kind permission.","region":"Asia","subregion":null,"min_zoom":7.2,"label":null,"wikidataid":null,"name_ar":"كونكورث","name_bn":"কংগকোয়েরহ","name_de":"Kongur","name_en":"Kongur Tagh","name_es":"Kongkoerh","name_fr":"Kongur Tagh","name_el":"Κόνγκκοέρχ","name_hi":"कोंगकोएरहो","name_hu":"Kongkoerh","name_id":"Kongkoerh","name_it":"Kongkoerh","name_ja":"コングール山","name_ko":"콩쿠르","name_nl":"Kongur","name_pl":"Kongkoerh","name_pt":"Kongkoerh","name_ru":"гора Конгур","name_sv":"Kongkoerh","name_tr":"Kongkoerh","name_vi":"Núi Kongkoerh","name_zh":"公格尔山","ne_id":1159105819,"name_fa":"کونگ کوئرخ","name_he":"קונגקורה","name_uk":"Конгкахерб","name_ur":"کانگکوئیر","name_zht":"孔克爾山"},"bbox":[75.309863,38.590096,75.309863,38.590096],"geometry":{"type":"Point","coordinates":[75.309863,38.590096]}},{"type":"Feature","properties":{"scalerank":9,"featurecla":"mountain","name":"Köketau","elevation":4622,"comment":null,"name_alt":null,"lat_y":45.169989325,"long_x":80.939829949,"nation1":"CN","nation2":"KG","note":"From PeakBagger.com, with kind permission.","region":"Asia","subregion":null,"min_zoom":7.2,"label":null,"wikidataid":null,"name_ar":"كوكيتاو","name_bn":"কোকেতাউ","name_de":"Köketau","name_en":"Köketau","name_es":"Köketau","name_fr":"Köketau","name_el":"Κοκετάου","name_hi":"कोकेटौ","name_hu":"Köketau","name_id":"Köketau","name_it":"Köketau","name_ja":"ケケタウ山","name_ko":"쾨케타우","name_nl":"Köketau","name_pl":"Köketau","name_pt":"Köketau","name_ru":"гора Коктау","name_sv":"Köketau","name_tr":"Köketau","name_vi":"Núi Köketau","name_zh":"雪克陶山","ne_id":1159105821,"name_fa":"کوکتائو","name_he":"קוקטאו","name_uk":"Кокетау","name_ur":"کوکیٹاؤ","name_zht":"雪克陶山"},"bbox":[80.939803,45.170005,80.939803,45.170005],"geometry":{"type":"Point","coordinates":[80.939803,45.170005]}},{"type":"Feature","properties":{"scalerank":9,"featurecla":"mountain","name":"Kanchenjunga","elevation":8586,"comment":null,"name_alt":null,"lat_y":27.700079657,"long_x":88.150035027,"nation1":"IN","nation2":"NP","note":"From PeakBagger.com, with kind permission.","region":"Asia","subregion":null,"min_zoom":7.2,"label":null,"wikidataid":"Q82019","name_ar":"كانغشينجونغا","name_bn":"কাঞ্চনজঙ্ঘা","name_de":"Kangchendzönga","name_en":"Kanchenjunga","name_es":"Kanchenjunga","name_fr":"Kangchenjunga","name_el":"Κανγκτσενγιούνγκα","name_hi":"कंचनजंघा","name_hu":"Kancsendzönga","name_id":"Kangchenjunga","name_it":"Kangchenjunga","name_ja":"カンチェンジュンガ","name_ko":"칸첸중가","name_nl":"Kangchenjunga","name_pl":"Kanczendzonga","name_pt":"Kanchenjunga","name_ru":"Канченджанга","name_sv":"Kangchenjunga","name_tr":"Kançencunga Dağı","name_vi":"Kangchenjunga","name_zh":"干城章嘉峰","ne_id":1159105823,"name_fa":"کانگچنجونگا","name_he":"קנצ'נג'נגה","name_uk":"Канченджанґа","name_ur":"کنگچنجنگا","name_zht":"干城章嘉峰"},"bbox":[88.150023,27.700082,88.150023,27.700082],"geometry":{"type":"Point","coordinates":[88.150023,27.700082]}},{"type":"Feature","properties":{"scalerank":9,"featurecla":"mountain","name":"Hkakabo Razi","elevation":5881,"comment":null,"name_alt":null,"lat_y":28.33008454,"long_x":97.539927605,"nation1":"MM","nation2":"CN","note":"From PeakBagger.com, with kind permission.","region":"Asia","subregion":null,"min_zoom":7.2,"label":null,"wikidataid":"Q870063","name_ar":"هكاكابو رازي","name_bn":"হকাকাবো রাজি","name_de":"Hkakabo Razi","name_en":"Hkakabo Razi","name_es":"Hkakabo Razi","name_fr":"Hkakabo Razi","name_el":"Χκακάμπο Ράζι","name_hi":"खाकाबो राज़ी","name_hu":"Hkakabo Razi","name_id":"Hkakabo Razi","name_it":"Hkakabo Razi","name_ja":"カカボラジ山","name_ko":"카까보라지산","name_nl":"Hkakabo Razi","name_pl":"Kagaboyazi Taung","name_pt":"Hkakabo Razi","name_ru":"Хкакабо Рази","name_sv":"Hkakabo Razi","name_tr":"Hkakabo Razi","name_vi":"Hkakabo Razi","name_zh":"开加博峰","ne_id":1159105843,"name_fa":"کاکابو رازی","name_he":"הקבאבו ראזי","name_uk":"Кхакаборазі","name_ur":"کاکابو راضی","name_zht":"開加博峰"},"bbox":[97.539933,28.33007,97.539933,28.33007],"geometry":{"type":"Point","coordinates":[97.539933,28.33007]}},{"type":"Feature","properties":{"scalerank":9,"featurecla":"mountain","name":"Gyala Peri","elevation":7294,"comment":null,"name_alt":null,"lat_y":29.810003973,"long_x":94.969981316,"nation1":"CN","nation2":null,"note":"From PeakBagger.com, with kind permission.","region":"Asia","subregion":null,"min_zoom":7.2,"label":null,"wikidataid":"Q1322521","name_ar":"جيالا بيري","name_bn":"গ্যালা পেরি","name_de":"Gyala Peri","name_en":"Gyala Peri","name_es":"Gyala Peri","name_fr":"Gyala Peri","name_el":"Γκιάλα Περί","name_hi":"ग्याला पेरी","name_hu":"Gyala Peri","name_id":"Gyala Peri","name_it":"Gyala Peri","name_ja":"ギャラペリ","name_ko":"갸라 페리","name_nl":"Gyala Peri","name_pl":"Gyala Peri","name_pt":"Gyala Peri","name_ru":"гора Гуала Пери","name_sv":"Gyala Peri","name_tr":"Gyala Peri","name_vi":"Núi Gyala Peri","name_zh":"加拉白壘","ne_id":1159105849,"name_fa":"گیالا پری","name_he":"הר פרי","name_uk":"Гіала Пері","name_ur":"گیالا پیری","name_zht":"加拉白壘"},"bbox":[94.969979,29.810017,94.969979,29.810017],"geometry":{"type":"Point","coordinates":[94.969979,29.810017]}},{"type":"Feature","properties":{"scalerank":9,"featurecla":"mountain","name":"Gora Shkhara","elevation":5200,"comment":null,"name_alt":null,"lat_y":43.000006415,"long_x":43.099986199,"nation1":"GE","nation2":"RU","note":"From PeakBagger.com, with kind permission.","region":"Europe","subregion":null,"min_zoom":7.2,"label":"Gora Shkhara","wikidataid":"Q217457","name_ar":"جبل سكارا","name_bn":"গোরা শখারা","name_de":"Schchara","name_en":"Shkhara","name_es":"Shjara","name_fr":"Chkhara","name_el":"Σχαρά","name_hi":"गोरा शखारा","name_hu":"Gora Shkhara","name_id":"Gunung Shkhara","name_it":"Shkhara","name_ja":"シュハラ山","name_ko":"시하라산","name_nl":"Sjchara","name_pl":"Szchara","name_pt":"Chkhara","name_ru":"Шхара","name_sv":"Sjchara","name_tr":"Şhara","name_vi":"Shkhara","name_zh":"什哈拉山","ne_id":1159105855,"name_fa":"شخارا","name_he":"שחארה","name_uk":"Шхара","name_ur":"گورا شکھارا","name_zht":"什哈拉山"},"bbox":[43.100004,43.000008,43.100004,43.000008],"geometry":{"type":"Point","coordinates":[43.100004,43.000008]}},{"type":"Feature","properties":{"scalerank":9,"featurecla":"mountain","name":"Gangkar Punsum","elevation":7570,"comment":null,"name_alt":null,"lat_y":28.049994208,"long_x":90.45997155,"nation1":"BT","nation2":"CN","note":"From PeakBagger.com, with kind permission.","region":"Asia","subregion":null,"min_zoom":7.2,"label":null,"wikidataid":"Q219986","name_ar":"جانجخار بوينسوم","name_bn":"গাংখার পেনসুম","name_de":"Gangkhar Puensum","name_en":"Gangkhar Puensum","name_es":"Gangkhar Puensum","name_fr":"Gangkhar Puensum","name_el":"Γανγκάρ Πουενσούμ","name_hi":"ग्न्खार प्येनसुम","name_hu":"Gangkhar Puensum","name_id":"Gangkhar Puensum","name_it":"Gangkhar Puensum","name_ja":"ガンカー・プンスム","name_ko":"강카르 푼섬","name_nl":"Gangkhar Puensum","name_pl":"Gangkhar Puensum","name_pt":"Gangkhar Puensum","name_ru":"Канкар-Пунсум","name_sv":"Gangkhar Puensum","name_tr":"Gangkhar Puensum","name_vi":"Gangkhar Puensum","name_zh":"冈嘎本孙峰","ne_id":1159105865,"name_fa":"گانگکهار پونزوم","name_he":"גאנגק'אר פואנסום","name_uk":"Гангкхар Пуенсум","name_ur":"گینگکر پنسم","name_zht":"岡嘎本孫峰"},"bbox":[90.459936,28.049994,90.459936,28.049994],"geometry":{"type":"Point","coordinates":[90.459936,28.049994]}},{"type":"Feature","properties":{"scalerank":9,"featurecla":"mountain","name":"Dombai-Ulgen","elevation":4038,"comment":null,"name_alt":null,"lat_y":43.229986884,"long_x":41.740000847,"nation1":"GE","nation2":"RU","note":"From PeakBagger.com, with kind permission.","region":"Europe","subregion":null,"min_zoom":7.2,"label":null,"wikidataid":"Q768409","name_ar":"دومباي أولجن","name_bn":"দোম্বাই-উলজেন","name_de":"Dombai-Ulgen","name_en":"Dombai-Ulgen","name_es":"Pico Dombai","name_fr":"Dombaï","name_el":"Ντομπάι-Ούλγκεν","name_hi":"डोंबाई-उलजेन","name_hu":"Dombai-Ulgen","name_id":"Dombai-Ulgen","name_it":"Dombai-Ulgen","name_ja":"ドムバイ・ウリゲン山","name_ko":"돔바이-울겐","name_nl":"Dombay-Oelgen","name_pl":"Dombaj-Ulgen","name_pt":"Dombai-Ulgen","name_ru":"Домбай-Ульген","name_sv":"Gora Dombay-Ul'gen","name_tr":"Dombai-Ulgen","name_vi":"Núi Dombai-Ulgen","name_zh":"东拜乌尔根山","ne_id":1159105871,"name_fa":"دومبی-اولگن","name_he":"דומבאי-אולגן","name_uk":"Домбай-Ульген","name_ur":"ڈومبائی الگین","name_zht":"東拜-烏爾根山"},"bbox":[41.740019,43.229997,41.740019,43.229997],"geometry":{"type":"Point","coordinates":[41.740019,43.229997]}},{"type":"Feature","properties":{"scalerank":9,"featurecla":"mountain","name":"Bazar Dyuzi","elevation":4466,"comment":null,"name_alt":null,"lat_y":41.210089423,"long_x":47.859995964,"nation1":"AZ","nation2":"RU","note":"From PeakBagger.com, with kind permission.","region":"Europe","subregion":null,"min_zoom":7.2,"label":null,"wikidataid":"Q725591","name_ar":"جبل بازاردوزو","name_bn":"বাজার দ্যুজি","name_de":"Bazardüzü","name_en":"Mount Bazardüzü","name_es":"Monte Bazardüzü","name_fr":"Bazardüzü","name_el":"Μπαζάρ-Ντιουζιού","name_hi":"बाज़ार ड्यूज़ि","name_hu":"Bazardüzü","name_id":"Gunung Bazardüzü","name_it":"Bazardüzü Dağı","name_ja":"バザルデュジ山","name_ko":"바자르 듀지","name_nl":"Bazardüzü","name_pl":"Bazardüzü","name_pt":"Bazarduzu Dagi","name_ru":"Базардюзю","name_sv":"Bazardjuziu","name_tr":"Bazardüzü Dağı","name_vi":"Núi Bazardüzü","name_zh":"巴扎尔迪聚山","ne_id":1159105881,"name_fa":"بازاردوزو","name_he":"בזואר דיוזי","name_uk":"Базардюзю","name_ur":"بازار ڈآئوزی","name_zht":"巴扎爾迪聚山"},"bbox":[47.85999,41.210095,47.85999,41.210095],"geometry":{"type":"Point","coordinates":[47.85999,41.210095]}},{"type":"Feature","properties":{"scalerank":9,"featurecla":"mountain","name":"Bairiga","elevation":6882,"comment":null,"name_alt":null,"lat_y":29.169989325,"long_x":96.719981316,"nation1":"CN","nation2":null,"note":"From PeakBagger.com, with kind permission.","region":"Asia","subregion":null,"min_zoom":7.2,"label":null,"wikidataid":"Q4848635","name_ar":"بايريجا","name_bn":"বাইরিগা","name_de":"Ruoni","name_en":"Bairiga","name_es":"Bairiga","name_fr":"Bairiga","name_el":"Μπαϊρίγκα","name_hi":"बैरिगा","name_hu":"Bairiga","name_id":"Bairiga","name_it":"Bairiga","name_ja":"ルオニイ","name_ko":"바이리가","name_nl":"Bairiga","name_pl":"Bairiga","name_pt":"Bairiga","name_ru":"Байрига","name_sv":"Bairiga","name_tr":"Bairiga","name_vi":"Núi Bairiga","name_zh":"若尼峰","ne_id":1159105883,"name_fa":"بیریگا","name_he":"בייריגה","name_uk":"Байріга","name_ur":"بیریگا","name_zht":"若尼峰"},"bbox":[96.719984,29.169972,96.719984,29.169972],"geometry":{"type":"Point","coordinates":[96.719984,29.169972]}},{"type":"Feature","properties":{"scalerank":9,"featurecla":"mountain","name":"Aragats Lerr","elevation":4090,"comment":null,"name_alt":null,"lat_y":40.529974677,"long_x":44.199961785,"nation1":"AM","nation2":null,"note":"From PeakBagger.com, with kind permission.","region":"Asia","subregion":null,"min_zoom":7.2,"label":null,"wikidataid":"Q203568","name_ar":"آراغاتس","name_bn":"আরাগাটস লের","name_de":"Aragaz","name_en":"Mount Aragats","name_es":"Aragats","name_fr":"mont Aragats","name_el":"Αραγκάτς","name_hi":"अरागट्स लेर","name_hu":"Aragac","name_id":"Gunung Aragats","name_it":"Aragats","name_ja":"アラガツ山","name_ko":"아라가트 레르","name_nl":"Aragats","name_pl":"Aragats","name_pt":"Aragats","name_ru":"Арагац","name_sv":"Aragats","name_tr":"Alagöz Dağı","name_vi":"Aragats","name_zh":"阿拉加茨山","ne_id":1159105889,"name_fa":"آراگاتس","name_he":"הר ארגץ","name_uk":"Араґац","name_ur":"ایراگاٹس لیر","name_zht":"阿拉加茨山"},"bbox":[44.199947,40.529982,44.199947,40.529982],"geometry":{"type":"Point","coordinates":[44.199947,40.529982]}},{"type":"Feature","properties":{"scalerank":6,"featurecla":"mountain","name":"Matterhorn","elevation":4478,"comment":null,"name_alt":null,"lat_y":45.938177802,"long_x":7.729624871,"nation1":null,"nation2":null,"note":null,"region":"Europe","subregion":null,"min_zoom":6.7,"label":null,"wikidataid":"Q1374","name_ar":"ماترهورن","name_bn":"ম্যাটারহর্ন","name_de":"Matterhorn","name_en":"Matterhorn","name_es":"Cervino","name_fr":"Cervin","name_el":"Μάττερχορν","name_hi":"मैट्रहॉर्न","name_hu":"Matterhorn","name_id":"Matterhorn","name_it":"Cervino","name_ja":"マッターホルン","name_ko":"마터호른산","name_nl":"Matterhorn","name_pl":"Matterhorn","name_pt":"Matterhorn","name_ru":"Маттерхорн","name_sv":"Matterhorn","name_tr":"Matterhorn","name_vi":"Núi Matterhorn","name_zh":"馬特洪峰","ne_id":1159105929,"name_fa":"ماترهورن","name_he":"מטרהורן","name_uk":"Матергорн","name_ur":"میٹرہارن","name_zht":"馬特洪峰"},"bbox":[7.729584,45.938172,7.729584,45.938172],"geometry":{"type":"Point","coordinates":[7.729584,45.938172]}},{"type":"Feature","properties":{"scalerank":3,"featurecla":"mountain","name":"Mont Blanc","elevation":4807,"comment":null,"name_alt":null,"lat_y":45.833685614,"long_x":6.865000847,"nation1":"France","nation2":"Italy","note":null,"region":"Europe","subregion":null,"min_zoom":5.1,"label":"Mt. Blanc","wikidataid":"Q583","name_ar":"مون بلون","name_bn":"মোঁ ব্লঁ","name_de":"Mont Blanc","name_en":"Mont Blanc","name_es":"Mont Blanc","name_fr":"mont Blanc","name_el":"Λευκό Όρος","name_hi":"मोंट ब्लैंक","name_hu":"Mont Blanc","name_id":"Mont Blanc","name_it":"Monte Bianco","name_ja":"モンブラン","name_ko":"몽블랑산","name_nl":"Mont Blanc","name_pl":"Mont Blanc","name_pt":"Monte Branco","name_ru":"Монблан","name_sv":"Mont Blanc","name_tr":"Mont Blanc","name_vi":"Đỉnh Blanc","name_zh":"勃朗峰","ne_id":1159105949,"name_fa":"مون بلان","name_he":"מון בלאן","name_uk":"Монблан","name_ur":"مونٹ بلانک","name_zht":"勃朗峰"},"bbox":[6.865043,45.833679,6.865043,45.833679],"geometry":{"type":"Point","coordinates":[6.865043,45.833679]}},{"type":"Feature","properties":{"scalerank":2,"featurecla":"mountain","name":"Gora Elbrus","elevation":5642,"comment":"Highest point in Europe","name_alt":"Mount Elbrus","lat_y":43.355169989,"long_x":42.439219597,"nation1":null,"nation2":null,"note":null,"region":"Europe","subregion":null,"min_zoom":5,"label":null,"wikidataid":"Q43105","name_ar":"إلبروس","name_bn":"এলব্রুস পর্বত","name_de":"Elbrus","name_en":"Mount Elbrus","name_es":"Monte Elbrus","name_fr":"Elbrouz","name_el":"Ελμπρούς","name_hi":"एल्ब्रुस पर्वत","name_hu":"Elbrusz","name_id":"Gunung Elbrus","name_it":"monte Elbrus","name_ja":"エルブルス山","name_ko":"옐브루스산","name_nl":"Elbroes","name_pl":"Elbrus","name_pt":"Monte Elbrus","name_ru":"Эльбрус","name_sv":"Elbrus","name_tr":"Elbruz Dağı","name_vi":"Elbrus","name_zh":"厄尔布鲁士山","ne_id":1159105953,"name_fa":"البروس","name_he":"אלברוס","name_uk":"Ельбрус","name_ur":"البروس","name_zht":"厄尔布鲁士山"},"bbox":[42.439198,43.355171,42.439198,43.355171],"geometry":{"type":"Point","coordinates":[42.439198,43.355171]}},{"type":"Feature","properties":{"scalerank":9,"featurecla":"mountain","name":"Monte Rosa","elevation":4634,"comment":null,"name_alt":null,"lat_y":45.940008856,"long_x":7.87000573,"nation1":"CH","nation2":null,"note":"From PeakBagger.com, with kind permission.","region":"Europe","subregion":null,"min_zoom":7.2,"label":null,"wikidataid":"Q14668","name_ar":"جبل مونتي روزا","name_bn":"মন্তে রোসা","name_de":"Monte Rosa Massiv","name_en":"Monte Rosa Massif","name_es":"Macizo del Monte Rosa","name_fr":"mont Rose","name_el":"Μόντε Ρόζα","name_hi":"मोंटे रोजा","name_hu":"Monte Rosa","name_id":"Monte Rosa","name_it":"Massiccio del Monte Rosa","name_ja":"モンテ・ローザ","name_ko":"몬테로사산","name_nl":"Monte Rosa","name_pl":"Monte Rosa","name_pt":"Maciço do Monte Rosa","name_ru":"Монте-Роза","name_sv":"Monte Rosa","name_tr":"Monte Rosa","name_vi":"Núi Rosa","name_zh":"罗莎峰","ne_id":1159105985,"name_fa":"مونته روزا","name_he":"הר ויגליו","name_uk":"Монте-Роза","name_ur":"مونٹی روزا","name_zht":"罗莎峰"},"bbox":[7.869985,45.94003,7.869985,45.94003],"geometry":{"type":"Point","coordinates":[7.869985,45.94003]}},{"type":"Feature","properties":{"scalerank":9,"featurecla":"mountain","name":"Gora Tebulosmta","elevation":4494,"comment":null,"name_alt":null,"lat_y":42.590094305,"long_x":45.299937371,"nation1":"GE","nation2":"RU","note":"From PeakBagger.com, with kind permission.","region":"Europe","subregion":null,"min_zoom":7.2,"label":null,"wikidataid":"Q768463","name_ar":"جبل تيبولوسمتا","name_bn":"গোরা তেবুলোস্মতা","name_de":"Tebulosmta","name_en":"Tebulosmta","name_es":"Tebulosmta","name_fr":"mont Teboulo","name_el":"Γκόρα Τεμπουλόσμτα","name_hi":"गोरा टेबूलोसमता","name_hu":"Gora Tebulosmta","name_id":"Gunung Tebulosmta","name_it":"Gora Tebulosmta","name_ja":"テビュロスムタ山","name_ko":"고라 테불로스엠타","name_nl":"Teboelosmta","name_pl":"Tebulos Mta","name_pt":"Tebulosmta","name_ru":"Тебулосмта","name_sv":"Gora Tebulosmta","name_tr":"Gora Tebulosmta","name_vi":"Núi Tebulosmta","name_zh":"特布卢斯姆塔山","ne_id":1159106017,"name_fa":"تبولوسمتا","name_he":"הר טבולוסמטה","name_uk":"Тебулосмта","name_ur":"گورا ٹیبولوسمتا","name_zht":"特布洛遜塔山"},"bbox":[45.299891,42.590114,45.299891,42.590114],"geometry":{"type":"Point","coordinates":[45.299891,42.590114]}},{"type":"Feature","properties":{"scalerank":9,"featurecla":"mountain","name":"Finsteraarhorn","elevation":4274,"comment":null,"name_alt":null,"lat_y":46.539984442,"long_x":8.130015496,"nation1":"CH","nation2":null,"note":"From PeakBagger.com, with kind permission.","region":"Europe","subregion":null,"min_zoom":7.2,"label":null,"wikidataid":"Q15127","name_ar":"فينستيرارون","name_bn":"ফিন্সটেরারহর্ন","name_de":"Finsteraarhorn","name_en":"Finsteraarhorn","name_es":"Finsteraarhorn","name_fr":"Finsteraarhorn","name_el":"Φίνστερααρχορν","name_hi":"फ़िनस्टरारहॉर्न","name_hu":"Finsteraarhorn","name_id":"Finsteraarhorn","name_it":"Finsteraarhorn","name_ja":"フィンシュターアールホルン","name_ko":"핀스테라호른","name_nl":"Finsteraarhorn","name_pl":"Finsteraarhorn","name_pt":"Finsteraarhorn","name_ru":"Финстераархорн","name_sv":"Finsteraarhorn","name_tr":"Finsteraarhorn","name_vi":"Núi Finsteraarhorn","name_zh":"芬斯特瓦山","ne_id":1159106021,"name_fa":"فینشترارهورن","name_he":"פינסטרארהורן","name_uk":"Фінстерааргорн","name_ur":"فنسٹیرارہارن","name_zht":"芬斯特瓦山"},"bbox":[8.130026,46.540006,8.130026,46.540006],"geometry":{"type":"Point","coordinates":[8.130026,46.540006]}},{"type":"Feature","properties":{"scalerank":6,"featurecla":"mountain","name":"Volcán de Colima","elevation":4330,"comment":null,"name_alt":null,"lat_y":19.566778876,"long_x":-103.63390052,"nation1":null,"nation2":null,"note":null,"region":"North America","subregion":null,"min_zoom":6.7,"label":null,"wikidataid":"Q825347","name_ar":"بركان كوليما","name_bn":"ভলকান ডি কলিমা","name_de":"Colima","name_en":"Colima","name_es":"Volcán de Colima","name_fr":"Volcán de Colima","name_el":"Κολίμα","name_hi":"वोल्कैन डी कोलिमा","name_hu":"Colima","name_id":"Gunung Berapi Colima","name_it":"Volcán de Colima","name_ja":"コリマ山","name_ko":"콜리마 화산","name_nl":"Colima","name_pl":"Colima","name_pt":"Colima","name_ru":"Колима","name_sv":"Colima","name_tr":"Colima Yanardağı","name_vi":"Núi lửa Colima","name_zh":"科利马火山","ne_id":1159106091,"name_fa":"آتشفشان کولیما","name_he":"קולימה","name_uk":"Коліма","name_ur":"ولکن ڈی کولیما","name_zht":"科利馬火山"},"bbox":[-103.633913,19.566794,-103.633913,19.566794],"geometry":{"type":"Point","coordinates":[-103.633913,19.566794]}},{"type":"Feature","properties":{"scalerank":6,"featurecla":"mountain","name":"Pico de Orizaba","elevation":5636,"comment":null,"name_alt":null,"lat_y":19.034002997,"long_x":-97.2783097,"nation1":null,"nation2":null,"note":null,"region":"North America","subregion":null,"min_zoom":6.7,"label":null,"wikidataid":"Q238147","name_ar":"بيكو دي أوريزابا","name_bn":"ওরিসাবা পর্বত","name_de":"Citlaltépetl","name_en":"Pico de Orizaba","name_es":"Citlaltépetl","name_fr":"pic d'Orizaba","name_el":"Πίκο ντε Ορισάμπα","name_hi":"पिको डी ओरिज़ाबा","name_hu":"Citlaltépetl","name_id":"Pico de Orizaba","name_it":"Pico de Orizaba","name_ja":"オリサバ山","name_ko":"시틀랄테페틀산","name_nl":"Piek van Orizaba","name_pl":"Orizaba","name_pt":"Pico de Orizaba","name_ru":"Пик Орисаба","name_sv":"Pico de Orizaba","name_tr":"Pico de Orizaba","name_vi":"Pico de Orizaba","name_zh":"奥里萨巴山","ne_id":1159106093,"name_fa":"اوریزابا","name_he":"פיקו דה אוריסאבה","name_uk":"Пік Орісаба","name_ur":"اورزابا چوٹی","name_zht":"奧里薩巴山"},"bbox":[-97.278298,19.033988,-97.278298,19.033988],"geometry":{"type":"Point","coordinates":[-97.278298,19.033988]}},{"type":"Feature","properties":{"scalerank":6,"featurecla":"mountain","name":"Volcán Popocatépetl","elevation":5420,"comment":null,"name_alt":null,"lat_y":19.034186102,"long_x":-98.622609016,"nation1":null,"nation2":null,"note":null,"region":"North America","subregion":null,"min_zoom":6.7,"label":null,"wikidataid":null,"name_ar":"فولكان بوبوكاتبتبيل","name_bn":"ভলকান পোপোকেটপেটল","name_de":"Popocatépetl","name_en":"Popocatépetl","name_es":"Volcán Popocatépetl","name_fr":"Volcan Popocatepetl","name_el":"Βολκάν Ποποκατέπτλ","name_hi":"वोल्कैन पोपोकाटेपेटल","name_hu":"Volcán Popocatépetl","name_id":"Gunung Berapi Popocatépetl","name_it":"Popocatépetl","name_ja":"ポポカテペトル山","name_ko":"볼칸 포포카테페틀","name_nl":"Popocatépetl","name_pl":"Wulkan Popocatépetl","name_pt":"Vulcão Popocatépetl","name_ru":"вулкан Попокате́петль","name_sv":"Volcán Popocatépetl","name_tr":"Volcán Popocatépetl","name_vi":"Núi lửa Popocatépetl","name_zh":"波波卡特佩特火山","ne_id":1159106095,"name_fa":"آتشفشان پوپوکاتپتل","name_he":"הר הגעש פופוקאקפטְל","name_uk":"вулкан Попокатепетль","name_ur":"ولکن پوپوکاٹیپیٹل","name_zht":"波波卡特佩特火山"},"bbox":[-98.622611,19.03419,-98.622611,19.03419],"geometry":{"type":"Point","coordinates":[-98.622611,19.03419]}},{"type":"Feature","properties":{"scalerank":6,"featurecla":"mountain","name":"Longs Peak","elevation":4346,"comment":null,"name_alt":null,"lat_y":40.255072333,"long_x":-105.619984504,"nation1":null,"nation2":null,"note":null,"region":"North America","subregion":null,"min_zoom":6.7,"label":"Longs Pk.","wikidataid":"Q1317383","name_ar":"جبل لونغز","name_bn":"লংস পীক","name_de":"Longs Peak","name_en":"Longs Peak","name_es":"Pico Longs","name_fr":"pic Longs","name_el":"Κορυφή Λονγκς","name_hi":"लॉन्ग चोटी","name_hu":"Longs Peak-csúcs","name_id":"Puncak Longs","name_it":"Longs Peak","name_ja":"ロングスピーク","name_ko":"롱즈피크","name_nl":"Longs Peak","name_pl":"Longs Peak","name_pt":"Longs Peak","name_ru":"гора Лонгс-Пик","name_sv":"Longs Peak","name_tr":"Longs Peak","name_vi":"Núi Longs","name_zh":"朗斯峰","ne_id":1159106099,"name_fa":"قله لونگز","name_he":"פסגת לונגס","name_uk":"пік Лонгс","name_ur":"لونگز پیک","name_zht":"朗斯峰"},"bbox":[-105.620007,40.255077,-105.620007,40.255077],"geometry":{"type":"Point","coordinates":[-105.620007,40.255077]}},{"type":"Feature","properties":{"scalerank":6,"featurecla":"mountain","name":"Mount Waddington","elevation":4019,"comment":null,"name_alt":null,"lat_y":51.372381903,"long_x":-125.262196418,"nation1":null,"nation2":null,"note":null,"region":"North America","subregion":null,"min_zoom":6.7,"label":"Mt. Waddington","wikidataid":"Q1737059","name_ar":"جبل وادينجتون","name_bn":"মাউন্ট ওয়াদিংটন","name_de":"Mount Waddington","name_en":"Mount Waddington","name_es":"Monte Waddington","name_fr":"mont Waddington","name_el":"Όρος Γουάντινγκτον","name_hi":"वैडिंगटन पर्वत","name_hu":"Mount Waddington","name_id":"Gunung Waddington","name_it":"Monte Waddington","name_ja":"ワディントン山","name_ko":"마운트 워딩턴","name_nl":"Mount Waddington","name_pl":"Mount Waddington","name_pt":"Monte Waddington","name_ru":"Уоддингтон","name_sv":"Mount Waddington","name_tr":"Waddington Dağı","name_vi":"Núi Waddington","name_zh":"沃丁顿山","ne_id":1159106135,"name_fa":"کوه وادینگتون","name_he":"הר וורנינג","name_uk":"Гора Ваддингтон","name_ur":"ماؤنٹ ویدینگٹن","name_zht":"沃丁頓山"},"bbox":[-125.262189,51.372374,-125.262189,51.372374],"geometry":{"type":"Point","coordinates":[-125.262189,51.372374]}},{"type":"Feature","properties":{"scalerank":6,"featurecla":"mountain","name":"Mount Fairweather","elevation":4671,"comment":null,"name_alt":null,"lat_y":58.907110907,"long_x":-137.526600715,"nation1":null,"nation2":null,"note":null,"region":"North America","subregion":null,"min_zoom":6.7,"label":"Mt. Fairweather","wikidataid":"Q1544340","name_ar":"جبل فيرويذر","name_bn":"মাউন্ট ফেয়ারওয়েদার","name_de":"Mount Fairweather","name_en":"Mount Fairweather","name_es":"Monte Fairweather","name_fr":"mont Fairweather","name_el":"Όρος Φαίργουεδερ","name_hi":"फेयरवेदर पर्वत","name_hu":"Mount Fairweather","name_id":"Gunung Fairweather","name_it":"Monte Fairweather","name_ja":"フェアウェザー山","name_ko":"페어웨더산","name_nl":"Mount Fairweather","name_pl":"Mount Fairweather","name_pt":"Monte Fairweather","name_ru":"Фэруэдер","name_sv":"Mount Fairweather","name_tr":"Fairweather Dağı","name_vi":"Núi Fairweather","name_zh":"費爾韋瑟山","ne_id":1159106159,"name_fa":"کوه فیرودر","name_he":"הר פיירווד'ר","name_uk":"Ферветер","name_ur":"ماؤنٹ فیئرویدر","name_zht":"費爾韋瑟山"},"bbox":[-137.526607,58.9071,-137.526607,58.9071],"geometry":{"type":"Point","coordinates":[-137.526607,58.9071]}},{"type":"Feature","properties":{"scalerank":6,"featurecla":"mountain","name":"Mount Logan","elevation":5959,"comment":null,"name_alt":null,"lat_y":60.579779364,"long_x":-140.412037727,"nation1":null,"nation2":null,"note":null,"region":"North America","subregion":null,"min_zoom":6.7,"label":"Mt. Logan","wikidataid":"Q120306","name_ar":"جبل لوغان","name_bn":"লোগান পর্বত","name_de":"Mount Logan","name_en":"Mount Logan","name_es":"Monte Logan","name_fr":"mont Logan","name_el":"Όρος Λόγκαν","name_hi":"लोगान पर्वत","name_hu":"Mount Logan","name_id":"Gunung Logan","name_it":"Monte Logan","name_ja":"ローガン山","name_ko":"로건산","name_nl":"Mount Logan","name_pl":"Logan","name_pt":"Maciço Logan","name_ru":"Логан","name_sv":"Mount Logan","name_tr":"Logan Dağı","name_vi":"Núi Logan","name_zh":"洛根山","ne_id":1159106177,"name_fa":"کوه لوگن","name_he":"הר לוגן","name_uk":"Лоґан","name_ur":"کوہ لوگن","name_zht":"洛根山"},"bbox":[-140.412019,60.579796,-140.412019,60.579796],"geometry":{"type":"Point","coordinates":[-140.412019,60.579796]}},{"type":"Feature","properties":{"scalerank":6,"featurecla":"mountain","name":"Mount Blackburn","elevation":4996,"comment":null,"name_alt":null,"lat_y":61.736700751,"long_x":-143.44261634,"nation1":null,"nation2":null,"note":null,"region":"North America","subregion":null,"min_zoom":6.7,"label":"Mt. Blackburn","wikidataid":"Q1520855","name_ar":"جبل بلاكبيرن","name_bn":"মাউন্ট ব্ল্যাকবার্ন","name_de":"Mount Blackburn","name_en":"Mount Blackburn","name_es":"Monte Blackburn","name_fr":"mont Blackburn","name_el":"Όρος Μπλάκμπερν","name_hi":"ब्लैकबर्न पर्वत","name_hu":"Mount Blackburn","name_id":"Gunung Blackburn","name_it":"Monte Blackburn","name_ja":"ブラックバーン山","name_ko":"마운트 블랙번","name_nl":"Mount Blackburn","name_pl":"Mount Blackburn","name_pt":"Monte Blackburn","name_ru":"Блэкбёрн","name_sv":"Mount Blackburn","name_tr":"Blackburn Dağı","name_vi":"Núi Blackburn","name_zh":"布萊克本火山","ne_id":1159106181,"name_fa":"کوه بلکبِرن","name_he":"הר בלקברן","name_uk":"Блекберн","name_ur":"ماؤنٹ بلیک برن","name_zht":"布萊克本火山"},"bbox":[-143.442599,61.736691,-143.442599,61.736691],"geometry":{"type":"Point","coordinates":[-143.442599,61.736691]}},{"type":"Feature","properties":{"scalerank":5,"featurecla":"mountain","name":"King's Peak","elevation":4123,"comment":null,"name_alt":null,"lat_y":40.782110907,"long_x":-110.372547981,"nation1":null,"nation2":null,"note":null,"region":"North America","subregion":null,"min_zoom":6,"label":"Kings Pk.","wikidataid":"Q1642538","name_ar":"جبل كينغز","name_bn":"কিং'স পীক","name_de":"Kings Peak","name_en":"King's Peak","name_es":"Pico King","name_fr":"Pic Kings","name_el":"Κινγκς Πικ","name_hi":"किंग्स चोटी","name_hu":"King's Peak-csúcs","name_id":"Gunung Kings","name_it":"King's Peak","name_ja":"キングス・ピーク","name_ko":"킹스 피크","name_nl":"Kings Peak","name_pl":"Kings Peak","name_pt":"Kings Peak","name_ru":"Кингс-Пик","name_sv":"King's Peak","name_tr":"King's Peak","name_vi":"Núi King's","name_zh":"國王峰","ne_id":1159106235,"name_fa":"قله کینگ","name_he":"פסגת קינג'ז","name_uk":"Кінґс Пік","name_ur":"کنگز پیک","name_zht":"國王峰"},"bbox":[-110.372561,40.782106,-110.372561,40.782106],"geometry":{"type":"Point","coordinates":[-110.372561,40.782106]}},{"type":"Feature","properties":{"scalerank":5,"featurecla":"mountain","name":"Mount Elbert","elevation":4402,"comment":null,"name_alt":null,"lat_y":39.12506745,"long_x":-106.44640052,"nation1":null,"nation2":null,"note":null,"region":"North America","subregion":null,"min_zoom":6,"label":"Mt. Elbert","wikidataid":"Q657225","name_ar":"جبل إلبرت","name_bn":"মাউন্ট অ্যালবার্ট","name_de":"Mount Elbert","name_en":"Mount Elbert","name_es":"Monte Elbert","name_fr":"mont Elbert","name_el":"Όρος Έλμπερτ","name_hi":"एल्बर्ट पर्वत","name_hu":"Mount Elbert","name_id":"Gunung Elbert","name_it":"Monte Elbert","name_ja":"エルバート山","name_ko":"앨버트 산","name_nl":"Mount Elbert","name_pl":"Mount Elbert","name_pt":"Monte Elbert","name_ru":"Элберт","name_sv":"Mount Elbert","name_tr":"Elbert Dağı","name_vi":"Núi Elbert","name_zh":"埃爾伯特峰","ne_id":1159106243,"name_fa":"کوه البرت","name_he":"הר פרנק ריי","name_uk":"Елберт","name_ur":"ماؤنٹ ایلبرٹ","name_zht":"埃爾伯特峰"},"bbox":[-106.446419,39.125082,-106.446419,39.125082],"geometry":{"type":"Point","coordinates":[-106.446419,39.125082]}},{"type":"Feature","properties":{"scalerank":5,"featurecla":"mountain","name":"Uncompahgre Peak","elevation":4361,"comment":null,"name_alt":null,"lat_y":38.073004462,"long_x":-107.477040168,"nation1":null,"nation2":null,"note":null,"region":"North America","subregion":null,"min_zoom":6,"label":"Uncompahgre Pk.","wikidataid":"Q576184","name_ar":"قمة أنكومباهجري","name_bn":"আনকম্পাহ্গা পিক","name_de":"Uncompahgre Peak","name_en":"Uncompahgre Peak","name_es":"Pico Uncompahgre","name_fr":"pic Uncompahgre","name_el":"Κορυφή Ουνκομπάγκρε","name_hi":"अनकम्पाग्रे चोटी","name_hu":"Uncompahgre-csúcs","name_id":"Gunung Uncompahgre","name_it":"Uncompahgre Peak","name_ja":"アンコンパーグレ・ピーク","name_ko":"언컴파그레 피크","name_nl":"Uncompahgre Peak","name_pl":"Uncompahgre Peak","name_pt":"Pico Uncompahgre","name_ru":"пик Анкомпа́гре","name_sv":"Uncompahgre Peak","name_tr":"Uncompahgre Zirvesi","name_vi":"Núi Uncompahgre","name_zh":"乌马格里峰","ne_id":1159106249,"name_fa":"قله اونکومپاهگره","name_he":"פסגת אנקומפגרה","name_uk":"пік Ункопагре","name_ur":"انکومپہگرے پیک","name_zht":"安肯帕格里峰"},"bbox":[-107.47705,38.073003,-107.47705,38.073003],"geometry":{"type":"Point","coordinates":[-107.47705,38.073003]}},{"type":"Feature","properties":{"scalerank":3,"featurecla":"mountain","name":"Mount Shasta","elevation":4322,"comment":null,"name_alt":null,"lat_y":41.409308173,"long_x":-122.194996711,"nation1":null,"nation2":null,"note":null,"region":"North America","subregion":null,"min_zoom":5.1,"label":null,"wikidataid":"Q748355","name_ar":"جبل شاستا","name_bn":"মাউন্ট শাস্তা","name_de":"Mount Shasta","name_en":"Mount Shasta","name_es":"Monte Shasta","name_fr":"mont Shasta","name_el":"Όρος Σάστα","name_hi":"माउण्टशस्ता","name_hu":"Shasta-hegy","name_id":"Gunung Shasta","name_it":"Monte Shasta","name_ja":"シャスタ山","name_ko":"샤스타 산","name_nl":"Shasta","name_pl":"Mount Shasta","name_pt":"Monte Shasta","name_ru":"Шаста","name_sv":"Mount Shasta","name_tr":"Shasta Dağı","name_vi":"Núi Shasta","name_zh":"沙斯塔山","ne_id":1159106277,"name_fa":"کوه شاستا","name_he":"הר שסטה","name_uk":"Шаста","name_ur":"ماؤنٹ شاستا","name_zht":"沙斯塔山"},"bbox":[-122.195014,41.409307,-122.195014,41.409307],"geometry":{"type":"Point","coordinates":[-122.195014,41.409307]}},{"type":"Feature","properties":{"scalerank":3,"featurecla":"mountain","name":"Grand Teton","elevation":4199,"comment":null,"name_alt":null,"lat_y":43.763373114,"long_x":-110.801808235,"nation1":null,"nation2":null,"note":null,"region":"North America","subregion":null,"min_zoom":5.1,"label":null,"wikidataid":"Q2078034","name_ar":"غراند تيتون","name_bn":"গ্র্যান্ড টেটন","name_de":"Grand Teton","name_en":"Grand Teton","name_es":"Grand Teton","name_fr":"Grand Teton","name_el":"Γκραντ Τέτον","name_hi":"ग्रैंड टेटन","name_hu":"Grand Teton","name_id":"Grand Teton","name_it":"Grand Teton","name_ja":"グランド・ティトン","name_ko":"그랜드 티턴","name_nl":"Grand Teton","name_pl":"Grand Teton","name_pt":"Grand Teton","name_ru":"гора Гранд-Титон","name_sv":"Grand Teton","name_tr":"Grand Teton","name_vi":"Núi Grand Teton","name_zh":"大提顿峰","ne_id":1159106281,"name_fa":"دریاچه تتون","name_he":"גרנד טיטון","name_uk":"Гранд-Тітон","name_ur":"گرینڈ ٹیٹن","name_zht":"大提頓峰"},"bbox":[-110.801802,43.763368,-110.801802,43.763368],"geometry":{"type":"Point","coordinates":[-110.801802,43.763368]}},{"type":"Feature","properties":{"scalerank":2,"featurecla":"mountain","name":"Denali","elevation":6194,"comment":"Highest point in N. America","name_alt":"Mt. McKinley","lat_y":63.069403387,"long_x":-151.007313606,"nation1":null,"nation2":null,"note":null,"region":"North America","subregion":null,"min_zoom":5,"label":null,"wikidataid":"Q130018","name_ar":"دينالي","name_bn":"দেনালি","name_de":"Denali","name_en":"Denali","name_es":"Denali","name_fr":"Denali","name_el":"Όρος ΜακΚίνλεϊ","name_hi":"देनाली","name_hu":"Denali","name_id":"Denali","name_it":"Denali","name_ja":"デナリ","name_ko":"다닐리산","name_nl":"Denali","name_pl":"Denali","name_pt":"Monte Denali","name_ru":"Денали","name_sv":"Denali","name_tr":"Denali Dağı","name_vi":"Denali","name_zh":"丹奈利峰","ne_id":1159106297,"name_fa":"مککینلی","name_he":"הר דנאלי","name_uk":"Деналі","name_ur":"کوہ مک کینلی","name_zht":"丹奈利峰"},"bbox":[-151.007296,63.069411,-151.007296,63.069411],"geometry":{"type":"Point","coordinates":[-151.007296,63.069411]}},{"type":"Feature","properties":{"scalerank":2,"featurecla":"mountain","name":"Mount Whitney","elevation":4421,"comment":null,"name_alt":null,"lat_y":36.582709052,"long_x":-118.292225715,"nation1":null,"nation2":null,"note":null,"region":"North America","subregion":null,"min_zoom":5,"label":null,"wikidataid":"Q235539","name_ar":"جبل ويتني","name_bn":"মাউন্ট হুইটনি","name_de":"Mount Whitney","name_en":"Mount Whitney","name_es":"Monte Whitney","name_fr":"mont Whitney","name_el":"Όρος Χουίτνυ","name_hi":"व्हिटनी पर्वत","name_hu":"Mount Whitney","name_id":"Gunung Whitney","name_it":"Monte Whitney","name_ja":"ホイットニー山","name_ko":"휘트니산","name_nl":"Mount Whitney","name_pl":"Mount Whitney","name_pt":"Monte Whitney","name_ru":"Уитни","name_sv":"Mount Whitney","name_tr":"Whitney Dağı","name_vi":"Núi Whitney","name_zh":"惠特尼峰","ne_id":1159106313,"name_fa":"کوه ویتنی","name_he":"הר ויטני","name_uk":"Гора Уїтні","name_ur":"ماؤنٹ وہائٹنی","name_zht":"惠特尼峰"},"bbox":[-118.292218,36.582715,-118.292218,36.582715],"geometry":{"type":"Point","coordinates":[-118.292218,36.582715]}},{"type":"Feature","properties":{"scalerank":9,"featurecla":"mountain","name":"White Mountain Peak","elevation":4342,"comment":null,"name_alt":null,"lat_y":37.630072333,"long_x":-118.259999153,"nation1":"US","nation2":null,"note":"From PeakBagger.com, with kind permission.","region":"North America","subregion":null,"min_zoom":7.2,"label":null,"wikidataid":"Q4468440","name_ar":"قمة الجبل الأبيض","name_bn":"হোয়াইট মাউন্টেন পিক","name_de":"White Mountain Peak","name_en":"White Mountain Peak","name_es":"Pico White Mountain","name_fr":"Pic White Mountain","name_el":"Κορυφή Γουάιτ Χιλκ","name_hi":"व्हाइट माउंटेन पीक","name_hu":"White Mountain-csúcs","name_id":"Gunung White","name_it":"White Mountain Peak","name_ja":"ホワイトマウンテンピーク","name_ko":"화이트 마운틴 피크","name_nl":"White Mountain Peak","name_pl":"White Mountain","name_pt":"Pico White Mountain","name_ru":"Уайт-Маунтин-Пик","name_sv":"White Mountain Peak","name_tr":"Beyaz Dağ Zirvesi","name_vi":"Núi White Mountain","name_zh":"怀特主峰","ne_id":1159106317,"name_fa":"قله کوه وایت","name_he":"פסגת הר וייט","name_uk":"пік Вайт-Маунтін","name_ur":"وہائٹ ماؤنٹین پیک","name_zht":"白山峰"},"bbox":[-118.259986,37.630069,-118.259986,37.630069],"geometry":{"type":"Point","coordinates":[-118.259986,37.630069]}},{"type":"Feature","properties":{"scalerank":9,"featurecla":"mountain","name":"Mount Rainier","elevation":4392,"comment":null,"name_alt":null,"lat_y":46.849982001,"long_x":-121.759999153,"nation1":"US","nation2":null,"note":"From PeakBagger.com, with kind permission.","region":"North America","subregion":null,"min_zoom":7.2,"label":null,"wikidataid":"Q194057","name_ar":"جبل رينييه","name_bn":"রাইনিয়ার পর্বত","name_de":"Mount Rainier","name_en":"Mount Rainier","name_es":"Monte Rainier","name_fr":"mont Rainier","name_el":"Όρος Ρενιέρ","name_hi":"माउण्टरेनियर","name_hu":"Mount Rainier","name_id":"Gunung Rainier","name_it":"Monte Rainier","name_ja":"レーニア山","name_ko":"레이니어산","name_nl":"Mount Rainier","name_pl":"Mount Rainier","name_pt":"Monte Rainier","name_ru":"Рейнир","name_sv":"Mount Rainier","name_tr":"Rainier Dağı","name_vi":"Núi Rainier","name_zh":"雷尼爾山","ne_id":1159106339,"name_fa":"کوه رینیر","name_he":"הר ריינייר","name_uk":"Рейнір","name_ur":"ماؤنٹ رائنیر","name_zht":"雷尼爾山"},"bbox":[-121.759997,46.849971,-121.759997,46.849971],"geometry":{"type":"Point","coordinates":[-121.759997,46.849971]}},{"type":"Feature","properties":{"scalerank":9,"featurecla":"mountain","name":"Gannett Peak","elevation":4207,"comment":null,"name_alt":null,"lat_y":43.179999091,"long_x":-109.650013801,"nation1":"US","nation2":null,"note":"From PeakBagger.com, with kind permission.","region":"North America","subregion":null,"min_zoom":7.2,"label":null,"wikidataid":"Q1493617","name_ar":"جبل جانيت","name_bn":"গ্যানেট পীক","name_de":"Gannett Peak","name_en":"Gannett Peak","name_es":"Pico Gannett","name_fr":"Pic Gannett","name_el":"Κορυφή Γκάννεττ","name_hi":"गैनेट चोटी","name_hu":"Gannett-csúcs","name_id":"Gunung Gannett","name_it":"Gannett Peak","name_ja":"ガネット・ピーク","name_ko":"개넷 피크","name_nl":"Gannett Peak","name_pl":"Gannett Peak","name_pt":"Pico Gannett","name_ru":"Ганнет-Пик","name_sv":"Gannett Peak","name_tr":"Gannett Zirvesi","name_vi":"Núi Gannett","name_zh":"甘尼特峰","ne_id":1159106361,"name_fa":"قله گانت","name_he":"פסגת גאנט","name_uk":"Ганнет-Пік","name_ur":"گینیٹ پیک","name_zht":"甘尼特峰"},"bbox":[-109.650036,43.179993,-109.650036,43.179993],"geometry":{"type":"Point","coordinates":[-109.650036,43.179993]}},{"type":"Feature","properties":{"scalerank":7,"featurecla":"mountain","name":"Pico Cristóbal Colón","elevation":5775,"comment":null,"name_alt":null,"lat_y":10.842474677,"long_x":-73.692433235,"nation1":null,"nation2":null,"note":null,"region":"South America","subregion":null,"min_zoom":7,"label":"Pico Cristóbol Colón","wikidataid":"Q578862","name_ar":"جبل بيكو كريستوفال كولوم","name_bn":"পিকো ক্রিস্টোবল কোলোন","name_de":"Pico Cristóbal Colón","name_en":"Pico Cristóbal Colón","name_es":"Pico Cristóbal Colón","name_fr":"Pic Cristóbal Colón","name_el":"Πίκο Κριστομπάλ Κολόν","name_hi":"पिको क्रिस्टोबल कोलोन","name_hu":"Pico Cristóbal Colón","name_id":"Pico Cristobal Colon","name_it":"Picco Cristoforo Colombo","name_ja":"クリストバル・コロン山","name_ko":"크리스토발콜론봉","name_nl":"Pico Cristóbal Colón","name_pl":"Cristóbal Colón","name_pt":"Pico Cristóbal Colón","name_ru":"Кристобаль-Колон","name_sv":"Pico Cristóbal Colón","name_tr":"Pico Cristóbal Colón","name_vi":"Pico Cristóbal Colón","name_zh":"哥伦布峰","ne_id":1159106453,"name_fa":"کریستوبال کولون","name_he":"פסגת כריסטובל קולון","name_uk":"Піко-Крістобаль-Колон","name_ur":"کرسٹوبال کولون چوٹی","name_zht":"哥伦布峰"},"bbox":[-73.692444,10.842496,-73.692444,10.842496],"geometry":{"type":"Point","coordinates":[-73.692444,10.842496]}},{"type":"Feature","properties":{"scalerank":6,"featurecla":"mountain","name":"Volcán Domuyo","elevation":4709,"comment":null,"name_alt":null,"lat_y":-36.579888605,"long_x":-70.420033332,"nation1":null,"nation2":null,"note":null,"region":"South America","subregion":null,"min_zoom":6.7,"label":null,"wikidataid":"Q312770","name_ar":"بركان دوميو","name_bn":"ভলকেন ডোমুয়ো","name_de":"Volcán Domuyo","name_en":"Domuyo","name_es":"Volcán Domuyo","name_fr":"Volcan Domuyo","name_el":"Βολκάν Ντόμουγιο","name_hi":"वोल्कैन डोम्यूयो","name_hu":"Volcán Domuyo","name_id":"Gunung Berapi Domuyo","name_it":"Volcán Domuyo","name_ja":"ドムジョ山","name_ko":"볼칸 도무요","name_nl":"Domuyo","name_pl":"Domuyo","name_pt":"Vulcão Domuyo","name_ru":"Домуйо","name_sv":"Volcán Domuyo","name_tr":"Volcán Domuyo","name_vi":"Núi lửa Domuyo","name_zh":"多穆约火山","ne_id":1159106459,"name_fa":"آتشفشان دومویو","name_he":"הר הגעש דומויו","name_uk":"Домуйо","name_ur":"ولکن ڈومویو","name_zht":"多穆約火山"},"bbox":[-70.42004,-36.579882,-70.42004,-36.579882],"geometry":{"type":"Point","coordinates":[-70.42004,-36.579882]}},{"type":"Feature","properties":{"scalerank":6,"featurecla":"mountain","name":"Cerro San Valentín","elevation":4058,"comment":null,"name_alt":null,"lat_y":-46.594903253,"long_x":-73.345997688,"nation1":null,"nation2":null,"note":null,"region":"South America","subregion":null,"min_zoom":6.7,"label":null,"wikidataid":"Q2092228","name_ar":"سيرو سان فالنتين","name_bn":"সেররো সান ভ্যালেন্তিন","name_de":"Cerro San Valentín","name_en":"Monte San Valentin","name_es":"Monte San Valentín","name_fr":"Monte San Valentin","name_el":"Σέρρο Σαν Βαλεντίν","name_hi":"सेरो सैन वैलेंटाइन","name_hu":"Cerro San Valentín","name_id":"Cerro San Valentin","name_it":"Monte San Valentin","name_ja":"サン・バレンティン山","name_ko":"세로 산 발렌틴","name_nl":"Monte San Valentin","name_pl":"Monte San Valentin","name_pt":"Monte San Valentin","name_ru":"Сан-Валентин","name_sv":"Cerro San Valentín","name_tr":"Cerro San Valentín","name_vi":"Núi San Valentin","name_zh":"圣巴伦廷山","ne_id":1159106479,"name_fa":"سرو سان والنتین","name_he":"הר סן ולנטין","name_uk":"Сан-Валентин","name_ur":"کیرو سان ویلینٹن","name_zht":"聖巴倫廷山"},"bbox":[-73.346006,-46.594893,-73.346006,-46.594893],"geometry":{"type":"Point","coordinates":[-73.346006,-46.594893]}},{"type":"Feature","properties":{"scalerank":6,"featurecla":"mountain","name":"Nevado del Ruiz","elevation":5311,"comment":null,"name_alt":null,"lat_y":4.899969794,"long_x":-75.322316047,"nation1":null,"nation2":null,"note":null,"region":"South America","subregion":null,"min_zoom":6.7,"label":null,"wikidataid":"Q233351","name_ar":"نيفادو ديل رويز","name_bn":"নেভাদো দেল রুইজ","name_de":"Nevado del Ruiz","name_en":"Nevado del Ruiz","name_es":"Nevado del Ruiz","name_fr":"Nevado del Ruiz","name_el":"Νεβάδο ντελ Ρουίζ","name_hi":"नेवाडो डेल रुइज़ो","name_hu":"Nevado del Ruiz","name_id":"Nevado del Ruiz","name_it":"Nevado del Ruiz","name_ja":"ネバドデルルイス火山","name_ko":"네바도델루이스산","name_nl":"Nevado del Ruiz","name_pl":"Nevado del Ruiz","name_pt":"Nevado del Ruiz","name_ru":"Невадо-дель-Руис","name_sv":"Nevado del Ruiz","name_tr":"Nevado del Ruiz","name_vi":"Nevado del Ruiz","name_zh":"内瓦多·德·鲁伊斯火山","ne_id":1159106509,"name_fa":"نوادو دل روئیس","name_he":"נוואדו דל רואיס","name_uk":"Невадо-дель-Руїс","name_ur":"نیوادو ڈیل روئز","name_zht":"內瓦多·德·魯伊斯火山"},"bbox":[-75.322325,4.899966,-75.322325,4.899966],"geometry":{"type":"Point","coordinates":[-75.322325,4.899966]}},{"type":"Feature","properties":{"scalerank":6,"featurecla":"mountain","name":"Cerro Tupungato","elevation":6550,"comment":null,"name_alt":null,"lat_y":-33.354546808,"long_x":-69.76872718,"nation1":null,"nation2":null,"note":null,"region":"South America","subregion":null,"min_zoom":6.7,"label":null,"wikidataid":"Q756244","name_ar":"سيرو توبونجاتو","name_bn":"সেররো তুপুংগাতো","name_de":"Tupungato","name_en":"Tupungato Volcano","name_es":"Volcán Tupungato","name_fr":"Tupungato","name_el":"Σέρρο Τουπουνγκάτο","name_hi":"सेरो टुपुंगाटो","name_hu":"Tupungato","name_id":"Tupungato","name_it":"Tupungato","name_ja":"トゥプンガート山","name_ko":"투풍가토산","name_nl":"Tupungato","name_pl":"Tupungato","name_pt":"Tupungato","name_ru":"Тупунгато","name_sv":"Tupungato","name_tr":"Tupungato","name_vi":"Núi Tupungato","name_zh":"图蓬加托火山","ne_id":1159106539,"name_fa":"توپونگاتو","name_he":"הר טופונגאטו","name_uk":"Тупунґато","name_ur":"کیرو ٹوپونگاٹو","name_zht":"圖蓬加托火山"},"bbox":[-69.768726,-33.354534,-69.768726,-33.354534],"geometry":{"type":"Point","coordinates":[-69.768726,-33.354534]}},{"type":"Feature","properties":{"scalerank":6,"featurecla":"mountain","name":"Nevado Ojos del Salado","elevation":6880,"comment":null,"name_alt":null,"lat_y":-27.109551691,"long_x":-68.542225715,"nation1":null,"nation2":null,"note":null,"region":"South America","subregion":null,"min_zoom":6.7,"label":null,"wikidataid":"Q233836","name_ar":"أوخوس ديل سالادو","name_bn":"ওহোস দেল সালাদো পর্বত","name_de":"Nevado Ojos del Salado","name_en":"Ojos del Salado","name_es":"Nevado Ojos del Salado","name_fr":"Nevado Ojos del Salado","name_el":"Όχος ντελ Σαλάδο","name_hi":"ओजोसडेल सेलेडो","name_hu":"Ojos del Salado","name_id":"Ojos del Salado","name_it":"Ojos del Salado","name_ja":"オホス・デル・サラード","name_ko":"오호스델살라도산","name_nl":"Ojos del Salado","name_pl":"Ojos del Salado","name_pt":"Ojos del Salado","name_ru":"Охос-дель-Саладо","name_sv":"Ojos del Salado","name_tr":"Ojos del Salado","name_vi":"Ojos del Salado","name_zh":"奥霍斯-德尔萨拉多山","ne_id":1159106545,"name_fa":"اوخوس دل سالادو","name_he":"אוחוס דל סלאדו","name_uk":"Охос-дель-Саладо","name_ur":"نیواڈو اوجوس ڈیل سالادو","name_zht":"奧霍斯-德爾薩拉多山"},"bbox":[-68.542235,-27.109592,-68.542235,-27.109592],"geometry":{"type":"Point","coordinates":[-68.542235,-27.109592]}},{"type":"Feature","properties":{"scalerank":7,"featurecla":"mountain","name":"Volcán Tajumulco","elevation":4220,"comment":null,"name_alt":null,"lat_y":15.043463446,"long_x":-91.8954972,"nation1":null,"nation2":null,"note":null,"region":"North America","subregion":"Central America","min_zoom":7,"label":null,"wikidataid":"Q818467","name_ar":"بركان طاخومولكو و تاكانا","name_bn":"ভলকান তাজুমুলকো","name_de":"Tajumulco","name_en":"Volcán Tajumulco y Tacana","name_es":"Volcán Tajumulco","name_fr":"Tajumulco","name_el":"Βολκάν Ταγιουμούλκο","name_hi":"टाजुमुल्को","name_hu":"Tajumulco","name_id":"Gunung Berapi Tajumulco","name_it":"Tajumulco","name_ja":"タフムルコ山","name_ko":"타후물코산","name_nl":"Tajumulco","name_pl":"Tajumulco","name_pt":"Monte Tajumulco","name_ru":"Тахумулько","name_sv":"Volcán Tajumulco","name_tr":"Tajumulco Yanardağı","name_vi":"Volcán Tajumulco","name_zh":"塔胡木耳科火山","ne_id":1159106857,"name_fa":"آتشفشان تاخومولکو","name_he":"טחומולקו","name_uk":"Тахумулько","name_ur":"ولکن تاجوملکو","name_zht":"塔胡木耳科火山"},"bbox":[-91.895515,15.043462,-91.895515,15.043462],"geometry":{"type":"Point","coordinates":[-91.895515,15.043462]}},{"type":"Feature","properties":{"scalerank":9,"featurecla":"mountain","name":"Volcán Tacaná","elevation":4067,"comment":null,"name_alt":null,"lat_y":15.130072333,"long_x":-92.110035774,"nation1":"GT","nation2":"MX","note":"From PeakBagger.com, with kind permission.","region":"North America","subregion":"Central America","min_zoom":7.2,"label":null,"wikidataid":"Q1752870","name_ar":"فولكان تاكانا","name_bn":"ভলকান তাকানা","name_de":"Tacaná","name_en":"Volcán Tacaná","name_es":"Volcán Tacaná","name_fr":"Tacaná","name_el":"Βολκάν Τακάνα","name_hi":"टकाना","name_hu":"Tacaná","name_id":"Gunung Berapi Tacana","name_it":"Tacaná","name_ja":"タカナ山","name_ko":"볼칸 타카나","name_nl":"Tacaná","name_pl":"Tacaná","name_pt":"Vulcão Tacaná","name_ru":"Такана","name_sv":"Volcán Tacaná","name_tr":"Volcán Tacaná","name_vi":"Núi lửa Tacaná","name_zh":"塔卡納火山","ne_id":1159106891,"name_fa":"آتشفشان تاکانا","name_he":"הר הגעש טאקאנה","name_uk":"Такана","name_ur":"ولکن ٹاکانا","name_zht":"塔卡納火山"},"bbox":[-92.110034,15.130062,-92.110034,15.130062],"geometry":{"type":"Point","coordinates":[-92.110034,15.130062]}},{"type":"Feature","properties":{"scalerank":4,"featurecla":"mountain","name":"Gunung Kinabalu","elevation":4101,"comment":null,"name_alt":null,"lat_y":6.083380438,"long_x":116.549937371,"nation1":null,"nation2":null,"note":null,"region":"Asia","subregion":"Malay Archipelago","min_zoom":6,"label":null,"wikidataid":"Q60967","name_ar":"جبل كينابالو","name_bn":"কিনাবালু পর্বত","name_de":"Kinabalu","name_en":"Mount Kinabalu","name_es":"Monte Kinabalu","name_fr":"mont Kinabalu","name_el":"Κιναμπάλου","name_hi":"गुनुंग किनाबालु","name_hu":"Gunung Kinabalu","name_id":"Gunung Kinabalu","name_it":"Monte Kinabalu","name_ja":"キナバル山","name_ko":"키나발루산","name_nl":"Mount Kinabalu","name_pl":"Kinabalu","name_pt":"Monte Kinabalu","name_ru":"Кинабалу","name_sv":"Gunung Kinabalu","name_tr":"Kinabalu Dağı","name_vi":"Núi Kinabalu","name_zh":"京那巴鲁山","ne_id":1159107181,"name_fa":"کوه کینبالو","name_he":"הר קינאבאלו","name_uk":"Кінабалу","name_ur":"گننگ کینابالو","name_zht":"京那巴鲁山"},"bbox":[116.549987,6.083399,116.549987,6.083399],"geometry":{"type":"Point","coordinates":[116.549987,6.083399]}},{"type":"Feature","properties":{"scalerank":7,"featurecla":"mountain","name":"Mount Victoria","elevation":4038,"comment":null,"name_alt":null,"lat_y":-8.896050714,"long_x":147.542735222,"nation1":null,"nation2":null,"note":null,"region":"Oceania","subregion":"Melanesia","min_zoom":7,"label":"Mt. Victoria","wikidataid":"Q2666968","name_ar":"جبل فيكتوريا","name_bn":"মাউন্ট ভিক্টোরিয়া","name_de":"Mount Victoria","name_en":"Mount Victoria","name_es":"Monte Victoria","name_fr":"mont Victoria","name_el":"Όρος Βικτώρια","name_hi":"विक्टोरिया पर्वत","name_hu":"Mount Victoria","name_id":"Gunung Victoria","name_it":"Monte Victoria","name_ja":"ビクトリア山","name_ko":"마운트 빅토리아","name_nl":"Mount Victoria","name_pl":"Mount Victoria","name_pt":"Monte Victoria","name_ru":"Виктория","name_sv":"Mount Victoria","name_tr":"Victoria Dağı","name_vi":"Núi Victoria","name_zh":"维多利亚山","ne_id":1159107511,"name_fa":"کوه ویکتوریا","name_he":"הר וְסוידוף","name_uk":"Вікторія","name_ur":"ماؤنٹ وکٹوریا","name_zht":"維多利亞山"},"bbox":[147.542767,-8.89606,147.542767,-8.89606],"geometry":{"type":"Point","coordinates":[147.542767,-8.89606]}},{"type":"Feature","properties":{"scalerank":6,"featurecla":"mountain","name":"Mount Wilhelm","elevation":4509,"comment":null,"name_alt":null,"lat_y":-5.800103448,"long_x":145.033213738,"nation1":null,"nation2":null,"note":null,"region":"Oceania","subregion":"Melanesia","min_zoom":6.7,"label":"Mt. Wilhelm","wikidataid":"Q277441","name_ar":"جبل ويلهيلم","name_bn":"মাউন্ট উইলহেলম","name_de":"Mount Wilhelm","name_en":"Mount Wilhelm","name_es":"Monte Wilhelm","name_fr":"mont Wilhelm","name_el":"Όρος Βίλχελμ","name_hi":"विल्हेम पर्वत","name_hu":"Mount Wilhelm","name_id":"Gunung Wilhelm","name_it":"Monte Wilhelm","name_ja":"ウィルヘルム山","name_ko":"윌헬름산","name_nl":"Mount Wilhelm","name_pl":"Góra Wilhelma","name_pt":"Monte Wilhelm","name_ru":"Вильгельм","name_sv":"Wilhelm","name_tr":"Wilhelm Dağı","name_vi":"Núi Wilhelm","name_zh":"威廉峰","ne_id":1159107523,"name_fa":"کوه ویلهلم","name_he":"הר זייל","name_uk":"Вільгельм","name_ur":"ماؤنٹ ول ہیلم","name_zht":"威廉峰"},"bbox":[145.033239,-5.800127,145.033239,-5.800127],"geometry":{"type":"Point","coordinates":[145.033239,-5.800127]}},{"type":"Feature","properties":{"scalerank":4,"featurecla":"mountain","name":"Puncak Jaya","elevation":4884,"comment":null,"name_alt":"Carstensz Pyramid","lat_y":-4.077691339,"long_x":137.166270379,"nation1":null,"nation2":null,"note":null,"region":"Oceania","subregion":"Melanesia","min_zoom":6,"label":null,"wikidataid":"Q1045888","name_ar":"بونتشاك جايا","name_bn":"পুঞ্চাক জায়া","name_de":"Carstensz-Pyramide","name_en":"Puncak Jaya","name_es":"Jaya","name_fr":"Puncak Jaya","name_el":"Πούντσακ Τζάγια","name_hi":"पुंकाक जय","name_hu":"Puncak Jaya","name_id":"Puncak Jaya","name_it":"Puncak Jaya","name_ja":"プンチャック・ジャヤ","name_ko":"푼착자야산","name_nl":"Puncak Jaya","name_pl":"Jaya","name_pt":"Pirâmide Carstensz","name_ru":"Пунчак-Джая","name_sv":"Puncak Jaya","name_tr":"Puncak Jaya","name_vi":"Puncak Jaya","name_zh":"查亞峰","ne_id":1159107539,"name_fa":"پونچاک جایا","name_he":"פונצ'אק ג'איה","name_uk":"Пунчак-Джая","name_ur":"پنچاک جایا","name_zht":"查亞峰"},"bbox":[137.166252,-4.077668,137.166252,-4.077668],"geometry":{"type":"Point","coordinates":[137.166252,-4.077668]}},{"type":"Feature","properties":{"scalerank":6,"featurecla":"mountain","name":"Mauna Kea","elevation":4205,"comment":null,"name_alt":null,"lat_y":19.82050202,"long_x":-155.468129036,"nation1":null,"nation2":null,"note":null,"region":"Oceania","subregion":"Polynesia","min_zoom":6.7,"label":null,"wikidataid":"Q131230","name_ar":"مونا كيا","name_bn":"মাউনা কেয়া","name_de":"Mauna Kea","name_en":"Mauna Kea","name_es":"Mauna Kea","name_fr":"Mauna Kea","name_el":"Μάουνα Κέα","name_hi":"मौना की","name_hu":"Mauna Kea","name_id":"Mauna Kea","name_it":"Mauna Kea","name_ja":"マウナ・ケア山","name_ko":"마우나케아산","name_nl":"Mauna Kea","name_pl":"Mauna Kea","name_pt":"Mauna Kea","name_ru":"Мауна-Кеа","name_sv":"Mauna Kea","name_tr":"Mauna Kea","name_vi":"Mauna Kea","name_zh":"冒纳凯阿火山","ne_id":1159107911,"name_fa":"مونا کیا","name_he":"מאונה קיאה","name_uk":"Мауна-Кеа","name_ur":"ماونا کیا","name_zht":"毛納基火山"},"bbox":[-155.468141,19.820493,-155.468141,19.820493],"geometry":{"type":"Point","coordinates":[-155.468141,19.820493]}},{"type":"Feature","properties":{"scalerank":6,"featurecla":"mountain","name":"Volcán Llullaillaco","elevation":6739,"comment":null,"name_alt":null,"lat_y":-24.719659113,"long_x":-68.536793586,"nation1":null,"nation2":null,"note":null,"region":"South America","subregion":null,"min_zoom":6.7,"label":null,"wikidataid":"Q214916","name_ar":"جبل لولايلاكو","name_bn":"ভলকান লুলাইলাকু","name_de":"Llullaillaco","name_en":"Llullaillaco","name_es":"Volcán Llullaillaco","name_fr":"Llullaillaco","name_el":"Βολκάν Γιουγιαϊλάκο","name_hi":"वोल्कैन लुल्लाइल्लाको","name_hu":"Llullaillaco","name_id":"Llullaillaco","name_it":"Llullaillaco","name_ja":"ユーヤイヤコ","name_ko":"유야이야코산","name_nl":"Llullaillaco","name_pl":"Llullaillaco","name_pt":"Llullaillaco","name_ru":"Льюльяйльяко","name_sv":"Llullaillaco","name_tr":"Llullaillaco","name_vi":"Núi lửa Llullaillaco","name_zh":"尤耶亚科山","ne_id":1159108555,"name_fa":"لوللیلاکو","name_he":"ליוליאקו","name_uk":"Юяйяко","name_ur":"ولکن لولیکو","name_zht":"尤耶亞科山"},"bbox":[-68.536783,-24.719703,-68.536783,-24.719703],"geometry":{"type":"Point","coordinates":[-68.536783,-24.719703]}},{"type":"Feature","properties":{"scalerank":6,"featurecla":"mountain","name":"Nevado Illimani","elevation":6402,"comment":null,"name_alt":null,"lat_y":-16.653863214,"long_x":-67.784718391,"nation1":null,"nation2":null,"note":null,"region":"South America","subregion":null,"min_zoom":6.7,"label":null,"wikidataid":"Q148521","name_ar":"جبل إليماني","name_bn":"নেভাদো ইল্লিমানি","name_de":"Illimani","name_en":"Illimani","name_es":"Illimani","name_fr":"Nevado Illimani","name_el":"Νεβάδο Ιλιμάνι","name_hi":"नेवाडो इलीमनी","name_hu":"Illimani","name_id":"Illimani","name_it":"Illimani","name_ja":"イリマニ","name_ko":"네바도 일리마니","name_nl":"Illimani","name_pl":"Illimani","name_pt":"Illimani","name_ru":"Ильимани","name_sv":"Illimani","name_tr":"Illimani","name_vi":"Núi Nevado Illimani","name_zh":"伊宜馬尼峰","ne_id":1159108563,"name_fa":"ایلیمانی","name_he":"אילימני","name_uk":"Іїмані","name_ur":"نیواڈا آئیمانی","name_zht":"伊宜馬尼峰"},"bbox":[-67.784732,-16.653828,-67.784732,-16.653828],"geometry":{"type":"Point","coordinates":[-67.784732,-16.653828]}},{"type":"Feature","properties":{"scalerank":6,"featurecla":"mountain","name":"Nevado Sajama","elevation":6542,"comment":null,"name_alt":null,"lat_y":-18.101861261,"long_x":-68.894215461,"nation1":null,"nation2":null,"note":null,"region":"South America","subregion":null,"min_zoom":6.7,"label":null,"wikidataid":"Q272593","name_ar":"نيفادو ساخاما","name_bn":"নেভাদো সাজামা","name_de":"Sajama","name_en":"Nevado Sajama","name_es":"Nevado Sajama","name_fr":"Nevado Sajama","name_el":"Νεβάδο Σαγιάμα","name_hi":"नेवाडो सजामा","name_hu":"Nevado Sajama","name_id":"Nevado Sajama","name_it":"Sajama","name_ja":"サハマ山","name_ko":"사하마산","name_nl":"Nevado Sajama","name_pl":"Sajama","name_pt":"Nevado Sajama","name_ru":"Сахама","name_sv":"Nevado Sajama","name_tr":"Nevado Sajama","name_vi":"Nevado Sajama","name_zh":"萨哈马火山","ne_id":1159108575,"name_fa":"نوادو ساخاما","name_he":"נבאדו סאג'מה","name_uk":"Невадо-Сахама","name_ur":"نیوادو ساجاما","name_zht":"薩哈馬火山"},"bbox":[-68.894208,-18.101866,-68.894208,-18.101866],"geometry":{"type":"Point","coordinates":[-68.894208,-18.101866]}},{"type":"Feature","properties":{"scalerank":6,"featurecla":"mountain","name":"Aucanquilcha","elevation":6176,"comment":null,"name_alt":null,"lat_y":-21.228448175,"long_x":-68.472035286,"nation1":null,"nation2":null,"note":null,"region":"South America","subregion":null,"min_zoom":6.7,"label":null,"wikidataid":"Q758574","name_ar":"أوكانكويلتشا","name_bn":"আউকাঙ্কুইলচা","name_de":"Aucanquilcha","name_en":"Aucanquilcha","name_es":"Volcán Aucanquilcha","name_fr":"Aucanquilcha","name_el":"Αουκανκίλτσα","name_hi":"औकनकुइल्चा","name_hu":"Aucanquilcha","name_id":"Aucanquilcha","name_it":"Aucanquilcha","name_ja":"アウカンキルチャ","name_ko":"아우칸퀼차","name_nl":"Aucanquilcha","name_pl":"Aucanquilcha","name_pt":"Aucanquilcha","name_ru":"Ауканкильча","name_sv":"Cerro Aucanquilcha","name_tr":"Aucanquilcha","name_vi":"Núi Aucanquilcha","name_zh":"奧坎基爾查峰","ne_id":1159108591,"name_fa":"اوکان کویلچا","name_he":"אווקאנקילצ'ה","name_uk":"Ауканкілча","name_ur":"اوکینکوئلچا","name_zht":"奧坎基爾查峰"},"bbox":[-68.472035,-21.228417,-68.472035,-21.228417],"geometry":{"type":"Point","coordinates":[-68.472035,-21.228417]}},{"type":"Feature","properties":{"scalerank":6,"featurecla":"mountain","name":"Nevado Auzangate","elevation":6372,"comment":null,"name_alt":null,"lat_y":-13.800103448,"long_x":-71.233326789,"nation1":null,"nation2":null,"note":null,"region":"South America","subregion":null,"min_zoom":6.7,"label":"Nevado Auzangate","wikidataid":"Q777794","name_ar":"جبل أوزانغات","name_bn":"নেভাদো আউজাঙ্গেট","name_de":"Ausangate","name_en":"Ausangate","name_es":"Ausangate","name_fr":"Ausangate","name_el":"Νεβάδο Αουζανγκ΄άτε","name_hi":"नेवाडो औज़ंगटे","name_hu":"Nevado Auzangate","name_id":"Nevado Auzangate","name_it":"Ausangate","name_ja":"アウサンガテ","name_ko":"네바도 아우잔게이트","name_nl":"Ausangate","name_pl":"Ausangate","name_pt":"Ausangate","name_ru":"Аусангате","name_sv":"Ausangate","name_tr":"Nevado Auzangate","name_vi":"Núi Nevado Auzangate","name_zh":"奧桑加特山","ne_id":1159108637,"name_fa":"اوسانگات","name_he":"אאוסנגטה","name_uk":"Аусанґате","name_ur":"نیوادو اوزانگیٹ","name_zht":"奧桑加特山"},"bbox":[-71.233324,-13.800082,-71.233324,-13.800082],"geometry":{"type":"Point","coordinates":[-71.233324,-13.800082]}},{"type":"Feature","properties":{"scalerank":6,"featurecla":"mountain","name":"Nevado Coropuna","elevation":6425,"comment":null,"name_alt":null,"lat_y":-15.516656183,"long_x":-72.650013801,"nation1":null,"nation2":null,"note":null,"region":"South America","subregion":null,"min_zoom":6.7,"label":null,"wikidataid":"Q946035","name_ar":"جبل كوروبونا","name_bn":"নেভাদো কোরোপুনা","name_de":"Coropuna","name_en":"Coropuna","name_es":"Coropuna","name_fr":"Nevado Coropuna","name_el":"Νεβάδο Κοροπούνα","name_hi":"नेवाडो कोरोपुना","name_hu":"Nevado Coropuna","name_id":"Nevado Coropuna","name_it":"Coropuna","name_ja":"コロプナ山","name_ko":"네바도 코로푸나","name_nl":"Coropuna","name_pl":"Coropuna","name_pt":"Nevado Coropuna","name_ru":"Коропуна","name_sv":"Coropuna","name_tr":"Coropuna","name_vi":"Núi Nevado Coropuna","name_zh":"科羅普納峰","ne_id":1159108649,"name_fa":"کروپونا","name_he":"נבאדו קורופונה","name_uk":"Коропуна","name_ur":"نیوادو کوروپونا","name_zht":"科羅普納峰"},"bbox":[-72.650018,-15.516644,-72.650018,-15.516644],"geometry":{"type":"Point","coordinates":[-72.650018,-15.516644]}},{"type":"Feature","properties":{"scalerank":6,"featurecla":"mountain","name":"Nevado Huascarán","elevation":6768,"comment":null,"name_alt":null,"lat_y":-9.121392511,"long_x":-77.608998176,"nation1":null,"nation2":null,"note":null,"region":"South America","subregion":null,"min_zoom":6.7,"label":null,"wikidataid":"Q200935","name_ar":"هوسكاران","name_bn":"নেভাদো হুয়াস্কারান","name_de":"Huascarán","name_en":"Huascarán","name_es":"Huascarán","name_fr":"Huascarán","name_el":"Ουασκαράν","name_hi":"हुआस्करन","name_hu":"Huascarán","name_id":"Huascarán","name_it":"Huascarán","name_ja":"ワスカラン","name_ko":"우아스카란산","name_nl":"Huascarán","name_pl":"Huascarán","name_pt":"Huascarán","name_ru":"Уаскаран","name_sv":"Huascarán","name_tr":"Huascarán Dağı","name_vi":"Huascarán","name_zh":"瓦斯卡兰山","ne_id":1159108665,"name_fa":"اوآسکاران","name_he":"וסקראן","name_uk":"Уаскаран","name_ur":"نیواڈو ہوساکاران","name_zht":"瓦斯卡蘭山"},"bbox":[-77.609014,-9.121364,-77.609014,-9.121364],"geometry":{"type":"Point","coordinates":[-77.609014,-9.121364]}},{"type":"Feature","properties":{"scalerank":6,"featurecla":"mountain","name":"Volcán Galeras","elevation":4276,"comment":null,"name_alt":null,"lat_y":1.21680329,"long_x":-77.366627571,"nation1":null,"nation2":null,"note":null,"region":"South America","subregion":null,"min_zoom":6.7,"label":null,"wikidataid":"Q235062","name_ar":"غاليرا","name_bn":"ভলকান গ্যালেরাস","name_de":"Galeras","name_en":"Galeras","name_es":"Volcán Galeras","name_fr":"Galeras","name_el":"Βολκάν Γκαλέρας","name_hi":"वोल्कैन गैलेरस","name_hu":"Galeras","name_id":"Galeras","name_it":"Galeras","name_ja":"ガレラス山","name_ko":"갈레라스 화산","name_nl":"Galeras","name_pl":"Galeras","name_pt":"Galeras","name_ru":"Галерас","name_sv":"Galeras","name_tr":"Volcán Galeras","name_vi":"Galeras","name_zh":"加勒拉斯火山","ne_id":1159108681,"name_fa":"گالراس","name_he":"גלראס","name_uk":"Ґалерас","name_ur":"ولکن گیلاریز","name_zht":"加勒拉斯火山"},"bbox":[-77.366624,1.216779,-77.366624,1.216779],"geometry":{"type":"Point","coordinates":[-77.366624,1.216779]}},{"type":"Feature","properties":{"scalerank":4,"featurecla":"mountain","name":"Chimborazo","elevation":6267,"comment":null,"name_alt":null,"lat_y":-1.469292902,"long_x":-78.81749427,"nation1":null,"nation2":null,"note":null,"region":"South America","subregion":null,"min_zoom":6,"label":null,"wikidataid":"Q14081","name_ar":"تشيمبورازو","name_bn":"চিম্বোরাজো","name_de":"Chimborazo","name_en":"Chimborazo volcano","name_es":"Volcán Chimborazo","name_fr":"Volcan Chimborazo","name_el":"Τσιμποράζο","name_hi":"चिम्बरोजी","name_hu":"Chimborazo","name_id":"Gunung Chimborazo","name_it":"Chimborazo","name_ja":"チンボラソ","name_ko":"침보라소산","name_nl":"Chimborazo","name_pl":"Chimborazo","name_pt":"Vulcão Chimborazo","name_ru":"Чимборасо","name_sv":"Chimborazo","name_tr":"Chimborazo","name_vi":"Chimborazo","name_zh":"钦博拉索山","ne_id":1159108689,"name_fa":"چیمبورازو","name_he":"צ'ימבורסו","name_uk":"Чімборасо","name_ur":"چمبورازو","name_zht":"钦博拉索山"},"bbox":[-78.817489,-1.469261,-78.817489,-1.469261],"geometry":{"type":"Point","coordinates":[-78.817489,-1.469261]}},{"type":"Feature","properties":{"scalerank":4,"featurecla":"mountain","name":"Pico Bolívar","elevation":4980,"comment":null,"name_alt":null,"lat_y":8.55286286,"long_x":-71.052723762,"nation1":null,"nation2":null,"note":null,"region":"South America","subregion":null,"min_zoom":6,"label":null,"wikidataid":"Q213704","name_ar":"بيكو بوليفار","name_bn":"পিকো বলিভার","name_de":"Pico Bolívar","name_en":"Pico Bolívar","name_es":"Pico Bolívar","name_fr":"Pico Bolívar","name_el":"Πίκο Μπολίβαρ","name_hi":"पिको बोलिवार","name_hu":"Pico Bolívar","name_id":"Gunung Bolivar","name_it":"Pico Bolívar","name_ja":"ボリバル山","name_ko":"볼리바르봉","name_nl":"Pico Bolívar","name_pl":"Bolívar","name_pt":"Pico Bolívar","name_ru":"Пик Боливар","name_sv":"Pico Bolívar","name_tr":"Pico Bolívar","name_vi":"Pico Bolívar","name_zh":"玻利瓦尔峰","ne_id":1159108707,"name_fa":"پیکو بولیوار","name_he":"פסגת בוליבר","name_uk":"Піко-Болівар","name_ur":"پیکو بولیوار","name_zht":"玻利瓦爾峰"},"bbox":[-71.052734,8.552859,-71.052734,8.552859],"geometry":{"type":"Point","coordinates":[-71.052734,8.552859]}},{"type":"Feature","properties":{"scalerank":2,"featurecla":"mountain","name":"Cerro Aconcagua","elevation":6959,"comment":"Highest point in S. America","name_alt":null,"lat_y":-32.655694269,"long_x":-70.015797493,"nation1":null,"nation2":null,"note":null,"region":"South America","subregion":null,"min_zoom":5,"label":null,"wikidataid":"Q39739","name_ar":"أكونكاغوا","name_bn":"অ্যাকনকাগুয়া পর্বত","name_de":"Aconcagua","name_en":"Aconcagua","name_es":"Aconcagua","name_fr":"Aconcagua","name_el":"Ακονκάγκουα","name_hi":"अकोंकागुआ","name_hu":"Aconcagua","name_id":"Akonkagua","name_it":"Aconcagua","name_ja":"アコンカグア","name_ko":"아콩카과산","name_nl":"Aconcagua","name_pl":"Aconcagua","name_pt":"Aconcágua","name_ru":"Аконкагуа","name_sv":"Aconcagua","name_tr":"Aconcagua","name_vi":"Aconcagua","name_zh":"阿空加瓜山","ne_id":1159108719,"name_fa":"آکونکاگوا","name_he":"אקונקגווה","name_uk":"Аконкаґуа","name_ur":"اکنکاگوا","name_zht":"阿空加瓜山"},"bbox":[-70.015801,-32.655679,-70.015801,-32.655679],"geometry":{"type":"Point","coordinates":[-70.015801,-32.655679]}},{"type":"Feature","properties":{"scalerank":9,"featurecla":"mountain","name":"Ritacuba Blanco","elevation":5410,"comment":null,"name_alt":null,"lat_y":6.489996649,"long_x":-72.300038215,"nation1":"CO","nation2":null,"note":"From PeakBagger.com, with kind permission.","region":"South America","subregion":null,"min_zoom":7.2,"label":null,"wikidataid":"Q2648857","name_ar":"ريتاكوبا بلانكو","name_bn":"রিতাকুবা ব্লাঙ্কো","name_de":"Ritacuba Blanco","name_en":"Ritacuba Blanco","name_es":"Ritacuba Blanco","name_fr":"Ritacuba Blanco","name_el":"Ριτακούμπα Μπλάνκο","name_hi":"रिटाकुबा ब्लैंको","name_hu":"Ritacuba Blanco","name_id":"Ritacuba Blanco","name_it":"Ritacuba Blanco","name_ja":"リタクバ・ブランコ","name_ko":"리타쿠바 블랑코","name_nl":"Ritacuba Blanco","name_pl":"Ritacuba Blanco","name_pt":"Ritacuba Blanco","name_ru":"Ритакуба-Бланко","name_sv":"Ritacuba Blanco","name_tr":"Ritacuba Blanco","name_vi":"Núi Ritacuba Blanco","name_zh":"白里塔库巴峰","ne_id":1159108795,"name_fa":"ریتاکوبا بلانکو","name_he":"ריטקובה בלאנקו","name_uk":"Рітакуба-Бланко","name_ur":"ریٹا کیوبا بلینکو","name_zht":"白里塔庫巴峰"},"bbox":[-72.300025,6.48998,-72.300025,6.48998],"geometry":{"type":"Point","coordinates":[-72.300025,6.48998]}}]}